[
  {
    "model": "yfcases.township",
    "pk": 1,
    "fields": {
      "city": 1,
      "city_name": "臺北市",
      "name": "中正區",
      "zip_code": "100",
      "district_court": "臺北",
      "land_office": "古亭",
      "finance_and_tax_bureau": "中正分處",
      "police_station": "",
      "irs": "",
      "home_office": ""
    }
  },
  {
    "model": "yfcases.township",
    "pk": 2,
    "fields": {
      "city": 1,
      "city_name": "臺北市",
      "name": "大同區",
      "zip_code": "103",
      "district_court": "士林",
      "land_office": "建成",
      "finance_and_tax_bureau": "大同分處",
      "police_station": "",
      "irs": "",
      "home_office": ""
    }
  },
  {
    "model": "yfcases.township",
    "pk": 3,
    "fields": {
      "city": 1,
      "city_name": "臺北市",
      "name": "中山區",
      "zip_code": "104",
      "district_court": "臺北",
      "land_office": "中山",
      "finance_and_tax_bureau": "中山分處",
      "police_station": "",
      "irs": "",
      "home_office": ""
    }
  },
  {
    "model": "yfcases.township",
    "pk": 4,
    "fields": {
      "city": 1,
      "city_name": "臺北市",
      "name": "松山區",
      "zip_code": "105",
      "district_court": "臺北",
      "land_office": "松山",
      "finance_and_tax_bureau": "松山分處",
      "police_station": "",
      "irs": "",
      "home_office": ""
    }
  },
  {
    "model": "yfcases.township",
    "pk": 5,
    "fields": {
      "city": 1,
      "city_name": "臺北市",
      "name": "大安區",
      "zip_code": "106",
      "district_court": "臺北",
      "land_office": "大安",
      "finance_and_tax_bureau": "大安分處",
      "police_station": "",
      "irs": "",
      "home_office": ""
    }
  },
  {
    "model": "yfcases.township",
    "pk": 6,
    "fields": {
      "city": 1,
      "city_name": "臺北市",
      "name": "萬華區",
      "zip_code": "108",
      "district_court": "臺北",
      "land_office": "建成",
      "finance_and_tax_bureau": "萬華分處",
      "police_station": "",
      "irs": "",
      "home_office": ""
    }
  },
  {
    "model": "yfcases.township",
    "pk": 7,
    "fields": {
      "city": 1,
      "city_name": "臺北市",
      "name": "信義區",
      "zip_code": "110",
      "district_court": "臺北",
      "land_office": "松山",
      "finance_and_tax_bureau": "信義分處",
      "police_station": "",
      "irs": "",
      "home_office": ""
    }
  },
  {
    "model": "yfcases.township",
    "pk": 8,
    "fields": {
      "city": 1,
      "city_name": "臺北市",
      "name": "士林區",
      "zip_code": "111",
      "district_court": "士林",
      "land_office": "士林",
      "finance_and_tax_bureau": "士林分處",
      "police_station": "",
      "irs": "",
      "home_office": ""
    }
  },
  {
    "model": "yfcases.township",
    "pk": 9,
    "fields": {
      "city": 1,
      "city_name": "臺北市",
      "name": "北投區",
      "zip_code": "112",
      "district_court": "士林",
      "land_office": "士林",
      "finance_and_tax_bureau": "北投分處",
      "police_station": "",
      "irs": "",
      "home_office": ""
    }
  },
  {
    "model": "yfcases.township",
    "pk": 10,
    "fields": {
      "city": 1,
      "city_name": "臺北市",
      "name": "內湖區",
      "zip_code": "114",
      "district_court": "士林",
      "land_office": "中山",
      "finance_and_tax_bureau": "內湖分處",
      "police_station": "",
      "irs": "",
      "home_office": ""
    }
  },
  {
    "model": "yfcases.township",
    "pk": 11,
    "fields": {
      "city": 1,
      "city_name": "臺北市",
      "name": "南港區",
      "zip_code": "115",
      "district_court": "士林",
      "land_office": "松山",
      "finance_and_tax_bureau": "南港分處",
      "police_station": "",
      "irs": "",
      "home_office": ""
    }
  },
  {
    "model": "yfcases.township",
    "pk": 12,
    "fields": {
      "city": 1,
      "city_name": "臺北市",
      "name": "文山區",
      "zip_code": "116",
      "district_court": "臺北",
      "land_office": "古亭",
      "finance_and_tax_bureau": "文山分處",
      "police_station": "",
      "irs": "",
      "home_office": ""
    }
  },
  {
    "model": "yfcases.township",
    "pk": 13,
    "fields": {
      "city": 2,
      "city_name": "基隆市",
      "name": "仁愛區",
      "zip_code": "200",
      "district_court": "基隆",
      "land_office": "信義",
      "finance_and_tax_bureau": "總局",
      "police_station": "",
      "irs": "",
      "home_office": ""
    }
  },
  {
    "model": "yfcases.township",
    "pk": 14,
    "fields": {
      "city": 1,
      "city_name": "臺北市",
      "name": "信義區",
      "zip_code": "110",
      "district_court": "臺北",
      "land_office": "松山",
      "finance_and_tax_bureau": "信義分處",
      "police_station": "",
      "irs": "",
      "home_office": ""
    }
  },
  {
    "model": "yfcases.township",
    "pk": 15,
    "fields": {
      "city": 1,
      "city_name": "臺北市",
      "name": "中正區",
      "zip_code": "100",
      "district_court": "臺北",
      "land_office": "古亭",
      "finance_and_tax_bureau": "中正分處",
      "police_station": "",
      "irs": "",
      "home_office": ""
    }
  },
  {
    "model": "yfcases.township",
    "pk": 16,
    "fields": {
      "city": 1,
      "city_name": "臺北市",
      "name": "中山區",
      "zip_code": "104",
      "district_court": "臺北",
      "land_office": "中山",
      "finance_and_tax_bureau": "中山分處",
      "police_station": "",
      "irs": "",
      "home_office": ""
    }
  },
  {
    "model": "yfcases.township",
    "pk": 17,
    "fields": {
      "city": 2,
      "city_name": "基隆市",
      "name": "安樂區",
      "zip_code": "204",
      "district_court": "基隆",
      "land_office": "安樂",
      "finance_and_tax_bureau": "總局",
      "police_station": "",
      "irs": "",
      "home_office": ""
    }
  },
  {
    "model": "yfcases.township",
    "pk": 18,
    "fields": {
      "city": 2,
      "city_name": "基隆市",
      "name": "暖暖區",
      "zip_code": "205",
      "district_court": "基隆",
      "land_office": "安樂",
      "finance_and_tax_bureau": "七堵分局",
      "police_station": "",
      "irs": "",
      "home_office": ""
    }
  },
  {
    "model": "yfcases.township",
    "pk": 19,
    "fields": {
      "city": 2,
      "city_name": "基隆市",
      "name": "七堵區",
      "zip_code": "206",
      "district_court": "基隆",
      "land_office": "安樂",
      "finance_and_tax_bureau": "七堵分局",
      "police_station": "",
      "irs": "",
      "home_office": ""
    }
  },
  {
    "model": "yfcases.township",
    "pk": 20,
    "fields": {
      "city": 3,
      "city_name": "新北市",
      "name": "萬里區",
      "zip_code": "207",
      "district_court": "基隆",
      "land_office": "汐止",
      "finance_and_tax_bureau": "淡水分處",
      "police_station": "",
      "irs": "",
      "home_office": ""
    }
  },
  {
    "model": "yfcases.township",
    "pk": 21,
    "fields": {
      "city": 3,
      "city_name": "新北市",
      "name": "金山區",
      "zip_code": "208",
      "district_court": "基隆",
      "land_office": "汐止",
      "finance_and_tax_bureau": "淡水分處",
      "police_station": "",
      "irs": "",
      "home_office": ""
    }
  },
  {
    "model": "yfcases.township",
    "pk": 22,
    "fields": {
      "city": 3,
      "city_name": "新北市",
      "name": "板橋區",
      "zip_code": "220",
      "district_court": "新北",
      "land_office": "板橋",
      "finance_and_tax_bureau": "板橋分處",
      "police_station": "",
      "irs": "",
      "home_office": ""
    }
  },
  {
    "model": "yfcases.township",
    "pk": 23,
    "fields": {
      "city": 3,
      "city_name": "新北市",
      "name": "汐止區",
      "zip_code": "221",
      "district_court": "士林",
      "land_office": "汐止",
      "finance_and_tax_bureau": "汐止分處",
      "police_station": "",
      "irs": "",
      "home_office": ""
    }
  },
  {
    "model": "yfcases.township",
    "pk": 24,
    "fields": {
      "city": 3,
      "city_name": "新北市",
      "name": "深坑區",
      "zip_code": "222",
      "district_court": "臺北",
      "land_office": "新店",
      "finance_and_tax_bureau": "新店分處",
      "police_station": "",
      "irs": "",
      "home_office": ""
    }
  },
  {
    "model": "yfcases.township",
    "pk": 25,
    "fields": {
      "city": 3,
      "city_name": "新北市",
      "name": "石碇區",
      "zip_code": "223",
      "district_court": "臺北",
      "land_office": "新店",
      "finance_and_tax_bureau": "新店分處",
      "police_station": "",
      "irs": "",
      "home_office": ""
    }
  },
  {
    "model": "yfcases.township",
    "pk": 26,
    "fields": {
      "city": 3,
      "city_name": "新北市",
      "name": "瑞芳區",
      "zip_code": "224",
      "district_court": "基隆",
      "land_office": "瑞芳",
      "finance_and_tax_bureau": "瑞芳分處",
      "police_station": "",
      "irs": "",
      "home_office": ""
    }
  },
  {
    "model": "yfcases.township",
    "pk": 27,
    "fields": {
      "city": 3,
      "city_name": "新北市",
      "name": "平溪區",
      "zip_code": "226",
      "district_court": "基隆",
      "land_office": "瑞芳",
      "finance_and_tax_bureau": "瑞芳分處",
      "police_station": "",
      "irs": "",
      "home_office": ""
    }
  },
  {
    "model": "yfcases.township",
    "pk": 28,
    "fields": {
      "city": 3,
      "city_name": "新北市",
      "name": "雙溪區",
      "zip_code": "227",
      "district_court": "基隆",
      "land_office": "瑞芳",
      "finance_and_tax_bureau": "瑞芳分處",
      "police_station": "",
      "irs": "",
      "home_office": ""
    }
  },
  {
    "model": "yfcases.township",
    "pk": 29,
    "fields": {
      "city": 3,
      "city_name": "新北市",
      "name": "貢寮區",
      "zip_code": "228",
      "district_court": "基隆",
      "land_office": "瑞芳",
      "finance_and_tax_bureau": "瑞芳分處",
      "police_station": "",
      "irs": "",
      "home_office": ""
    }
  },
  {
    "model": "yfcases.township",
    "pk": 30,
    "fields": {
      "city": 3,
      "city_name": "新北市",
      "name": "新店區",
      "zip_code": "231",
      "district_court": "臺北",
      "land_office": "新店",
      "finance_and_tax_bureau": "新店分處",
      "police_station": "",
      "irs": "",
      "home_office": ""
    }
  },
  {
    "model": "yfcases.township",
    "pk": 31,
    "fields": {
      "city": 3,
      "city_name": "新北市",
      "name": "坪林區",
      "zip_code": "232",
      "district_court": "臺北",
      "land_office": "新店",
      "finance_and_tax_bureau": "新店分處",
      "police_station": "",
      "irs": "",
      "home_office": ""
    }
  },
  {
    "model": "yfcases.township",
    "pk": 32,
    "fields": {
      "city": 3,
      "city_name": "新北市",
      "name": "烏來區",
      "zip_code": "233",
      "district_court": "臺北",
      "land_office": "新店",
      "finance_and_tax_bureau": "新店分處",
      "police_station": "",
      "irs": "",
      "home_office": ""
    }
  },
  {
    "model": "yfcases.township",
    "pk": 33,
    "fields": {
      "city": 3,
      "city_name": "新北市",
      "name": "永和區",
      "zip_code": "234",
      "district_court": "新北",
      "land_office": "中和",
      "finance_and_tax_bureau": "中和分處",
      "police_station": "",
      "irs": "",
      "home_office": ""
    }
  },
  {
    "model": "yfcases.township",
    "pk": 34,
    "fields": {
      "city": 3,
      "city_name": "新北市",
      "name": "中和區",
      "zip_code": "235",
      "district_court": "新北",
      "land_office": "中和",
      "finance_and_tax_bureau": "中和分處",
      "police_station": "",
      "irs": "",
      "home_office": ""
    }
  },
  {
    "model": "yfcases.township",
    "pk": 35,
    "fields": {
      "city": 3,
      "city_name": "新北市",
      "name": "土城區",
      "zip_code": "236",
      "district_court": "新北",
      "land_office": "板橋",
      "finance_and_tax_bureau": "總處",
      "police_station": "",
      "irs": "",
      "home_office": ""
    }
  },
  {
    "model": "yfcases.township",
    "pk": 36,
    "fields": {
      "city": 3,
      "city_name": "新北市",
      "name": "三峽區",
      "zip_code": "237",
      "district_court": "新北",
      "land_office": "樹林",
      "finance_and_tax_bureau": "三鶯分處",
      "police_station": "",
      "irs": "",
      "home_office": ""
    }
  },
  {
    "model": "yfcases.township",
    "pk": 37,
    "fields": {
      "city": 3,
      "city_name": "新北市",
      "name": "樹林區",
      "zip_code": "238",
      "district_court": "新北",
      "land_office": "樹林",
      "finance_and_tax_bureau": "總處",
      "police_station": "",
      "irs": "",
      "home_office": ""
    }
  },
  {
    "model": "yfcases.township",
    "pk": 38,
    "fields": {
      "city": 3,
      "city_name": "新北市",
      "name": "鶯歌區",
      "zip_code": "239",
      "district_court": "新北",
      "land_office": "樹林",
      "finance_and_tax_bureau": "三鶯分處",
      "police_station": "",
      "irs": "",
      "home_office": ""
    }
  },
  {
    "model": "yfcases.township",
    "pk": 39,
    "fields": {
      "city": 3,
      "city_name": "新北市",
      "name": "三重區",
      "zip_code": "241",
      "district_court": "新北",
      "land_office": "三重",
      "finance_and_tax_bureau": "三重分處",
      "police_station": "",
      "irs": "",
      "home_office": ""
    }
  },
  {
    "model": "yfcases.township",
    "pk": 40,
    "fields": {
      "city": 3,
      "city_name": "新北市",
      "name": "新莊區",
      "zip_code": "242",
      "district_court": "新北",
      "land_office": "新莊",
      "finance_and_tax_bureau": "新莊分處",
      "police_station": "",
      "irs": "",
      "home_office": ""
    }
  },
  {
    "model": "yfcases.township",
    "pk": 41,
    "fields": {
      "city": 3,
      "city_name": "新北市",
      "name": "泰山區",
      "zip_code": "243",
      "district_court": "新北",
      "land_office": "新莊",
      "finance_and_tax_bureau": "新莊分處",
      "police_station": "",
      "irs": "",
      "home_office": ""
    }
  },
  {
    "model": "yfcases.township",
    "pk": 42,
    "fields": {
      "city": 3,
      "city_name": "新北市",
      "name": "林口區",
      "zip_code": "244",
      "district_court": "新北",
      "land_office": "新莊",
      "finance_and_tax_bureau": "林口分處",
      "police_station": "",
      "irs": "",
      "home_office": ""
    }
  },
  {
    "model": "yfcases.township",
    "pk": 43,
    "fields": {
      "city": 3,
      "city_name": "新北市",
      "name": "蘆洲區",
      "zip_code": "247",
      "district_court": "新北",
      "land_office": "三重",
      "finance_and_tax_bureau": "三重分處",
      "police_station": "",
      "irs": "",
      "home_office": ""
    }
  },
  {
    "model": "yfcases.township",
    "pk": 44,
    "fields": {
      "city": 3,
      "city_name": "新北市",
      "name": "五股區",
      "zip_code": "248",
      "district_court": "新北",
      "land_office": "新莊",
      "finance_and_tax_bureau": "新莊分處",
      "police_station": "",
      "irs": "",
      "home_office": ""
    }
  },
  {
    "model": "yfcases.township",
    "pk": 45,
    "fields": {
      "city": 3,
      "city_name": "新北市",
      "name": "八里區",
      "zip_code": "249",
      "district_court": "士林",
      "land_office": "淡水",
      "finance_and_tax_bureau": "淡水分處",
      "police_station": "",
      "irs": "",
      "home_office": ""
    }
  },
  {
    "model": "yfcases.township",
    "pk": 46,
    "fields": {
      "city": 3,
      "city_name": "新北市",
      "name": "淡水區",
      "zip_code": "251",
      "district_court": "士林",
      "land_office": "淡水",
      "finance_and_tax_bureau": "淡水分處",
      "police_station": "",
      "irs": "",
      "home_office": ""
    }
  },
  {
    "model": "yfcases.township",
    "pk": 47,
    "fields": {
      "city": 3,
      "city_name": "新北市",
      "name": "三芝區",
      "zip_code": "252",
      "district_court": "士林",
      "land_office": "淡水",
      "finance_and_tax_bureau": "淡水分處",
      "police_station": "",
      "irs": "",
      "home_office": ""
    }
  },
  {
    "model": "yfcases.township",
    "pk": 48,
    "fields": {
      "city": 3,
      "city_name": "新北市",
      "name": "石門區",
      "zip_code": "253",
      "district_court": "士林",
      "land_office": "淡水",
      "finance_and_tax_bureau": "淡水分處",
      "police_station": "",
      "irs": "",
      "home_office": ""
    }
  },
  {
    "model": "yfcases.township",
    "pk": 49,
    "fields": {
      "city": 4,
      "city_name": "連江縣",
      "name": "南竿鄉",
      "zip_code": "209",
      "district_court": "",
      "land_office": "",
      "finance_and_tax_bureau": "",
      "police_station": "",
      "irs": "",
      "home_office": ""
    }
  },
  {
    "model": "yfcases.township",
    "pk": 50,
    "fields": {
      "city": 4,
      "city_name": "連江縣",
      "name": "北竿鄉",
      "zip_code": "210",
      "district_court": "",
      "land_office": "",
      "finance_and_tax_bureau": "",
      "police_station": "",
      "irs": "",
      "home_office": ""
    }
  },
  {
    "model": "yfcases.township",
    "pk": 51,
    "fields": {
      "city": 4,
      "city_name": "連江縣",
      "name": "莒光鄉",
      "zip_code": "211",
      "district_court": "",
      "land_office": "",
      "finance_and_tax_bureau": "",
      "police_station": "",
      "irs": "",
      "home_office": ""
    }
  },
  {
    "model": "yfcases.township",
    "pk": 52,
    "fields": {
      "city": 4,
      "city_name": "連江縣",
      "name": "東引鄉",
      "zip_code": "212",
      "district_court": "",
      "land_office": "",
      "finance_and_tax_bureau": "",
      "police_station": "",
      "irs": "",
      "home_office": ""
    }
  },
  {
    "model": "yfcases.township",
    "pk": 53,
    "fields": {
      "city": 5,
      "city_name": "宜蘭縣",
      "name": "宜蘭市",
      "zip_code": "260",
      "district_court": "",
      "land_office": "",
      "finance_and_tax_bureau": "",
      "police_station": "",
      "irs": "",
      "home_office": ""
    }
  },
  {
    "model": "yfcases.township",
    "pk": 54,
    "fields": {
      "city": 5,
      "city_name": "宜蘭縣",
      "name": "頭城鎮",
      "zip_code": "261",
      "district_court": "",
      "land_office": "",
      "finance_and_tax_bureau": "",
      "police_station": "",
      "irs": "",
      "home_office": ""
    }
  },
  {
    "model": "yfcases.township",
    "pk": 55,
    "fields": {
      "city": 5,
      "city_name": "宜蘭縣",
      "name": "礁溪鄉",
      "zip_code": "262",
      "district_court": "",
      "land_office": "",
      "finance_and_tax_bureau": "",
      "police_station": "",
      "irs": "",
      "home_office": ""
    }
  },
  {
    "model": "yfcases.township",
    "pk": 56,
    "fields": {
      "city": 5,
      "city_name": "宜蘭縣",
      "name": "壯圍鄉",
      "zip_code": "260",
      "district_court": "",
      "land_office": "",
      "finance_and_tax_bureau": "",
      "police_station": "",
      "irs": "",
      "home_office": ""
    }
  },
  {
    "model": "yfcases.township",
    "pk": 57,
    "fields": {
      "city": 5,
      "city_name": "宜蘭縣",
      "name": "員山鄉",
      "zip_code": "264",
      "district_court": "",
      "land_office": "",
      "finance_and_tax_bureau": "",
      "police_station": "",
      "irs": "",
      "home_office": ""
    }
  },
  {
    "model": "yfcases.township",
    "pk": 58,
    "fields": {
      "city": 5,
      "city_name": "宜蘭縣",
      "name": "羅東鎮",
      "zip_code": "265",
      "district_court": "",
      "land_office": "",
      "finance_and_tax_bureau": "",
      "police_station": "",
      "irs": "",
      "home_office": ""
    }
  },
  {
    "model": "yfcases.township",
    "pk": 59,
    "fields": {
      "city": 5,
      "city_name": "宜蘭縣",
      "name": "三星鄉",
      "zip_code": "266",
      "district_court": "",
      "land_office": "",
      "finance_and_tax_bureau": "",
      "police_station": "",
      "irs": "",
      "home_office": ""
    }
  },
  {
    "model": "yfcases.township",
    "pk": 60,
    "fields": {
      "city": 5,
      "city_name": "宜蘭縣",
      "name": "大同鄉",
      "zip_code": "267",
      "district_court": "",
      "land_office": "",
      "finance_and_tax_bureau": "",
      "police_station": "",
      "irs": "",
      "home_office": ""
    }
  },
  {
    "model": "yfcases.township",
    "pk": 61,
    "fields": {
      "city": 5,
      "city_name": "宜蘭縣",
      "name": "五結鄉",
      "zip_code": "268",
      "district_court": "",
      "land_office": "",
      "finance_and_tax_bureau": "",
      "police_station": "",
      "irs": "",
      "home_office": ""
    }
  },
  {
    "model": "yfcases.township",
    "pk": 62,
    "fields": {
      "city": 5,
      "city_name": "宜蘭縣",
      "name": "冬山鄉",
      "zip_code": "269",
      "district_court": "",
      "land_office": "",
      "finance_and_tax_bureau": "",
      "police_station": "",
      "irs": "",
      "home_office": ""
    }
  },
  {
    "model": "yfcases.township",
    "pk": 63,
    "fields": {
      "city": 5,
      "city_name": "宜蘭縣",
      "name": "蘇澳鎮",
      "zip_code": "270",
      "district_court": "",
      "land_office": "",
      "finance_and_tax_bureau": "",
      "police_station": "",
      "irs": "",
      "home_office": ""
    }
  },
  {
    "model": "yfcases.township",
    "pk": 64,
    "fields": {
      "city": 5,
      "city_name": "宜蘭縣",
      "name": "南澳鄉",
      "zip_code": "272",
      "district_court": "",
      "land_office": "",
      "finance_and_tax_bureau": "",
      "police_station": "",
      "irs": "",
      "home_office": ""
    }
  },
  {
    "model": "yfcases.township",
    "pk": 66,
    "fields": {
      "city": 7,
      "city_name": "新竹市",
      "name": "東區",
      "zip_code": "300",
      "district_court": "",
      "land_office": "",
      "finance_and_tax_bureau": "",
      "police_station": "",
      "irs": "",
      "home_office": ""
    }
  },
  {
    "model": "yfcases.township",
    "pk": 67,
    "fields": {
      "city": 7,
      "city_name": "新竹市",
      "name": "北區",
      "zip_code": "300",
      "district_court": "",
      "land_office": "",
      "finance_and_tax_bureau": "",
      "police_station": "",
      "irs": "",
      "home_office": ""
    }
  },
  {
    "model": "yfcases.township",
    "pk": 68,
    "fields": {
      "city": 7,
      "city_name": "新竹市",
      "name": "香山區",
      "zip_code": "300",
      "district_court": "",
      "land_office": "",
      "finance_and_tax_bureau": "",
      "police_station": "",
      "irs": "",
      "home_office": ""
    }
  },
  {
    "model": "yfcases.township",
    "pk": 69,
    "fields": {
      "city": 8,
      "city_name": "新竹縣",
      "name": "竹北市",
      "zip_code": "302",
      "district_court": "",
      "land_office": "",
      "finance_and_tax_bureau": "",
      "police_station": "",
      "irs": "",
      "home_office": ""
    }
  },
  {
    "model": "yfcases.township",
    "pk": 70,
    "fields": {
      "city": 8,
      "city_name": "新竹縣",
      "name": "湖口鄉",
      "zip_code": "303",
      "district_court": "",
      "land_office": "",
      "finance_and_tax_bureau": "",
      "police_station": "",
      "irs": "",
      "home_office": ""
    }
  },
  {
    "model": "yfcases.township",
    "pk": 71,
    "fields": {
      "city": 8,
      "city_name": "新竹縣",
      "name": "新豐鄉",
      "zip_code": "304",
      "district_court": "",
      "land_office": "",
      "finance_and_tax_bureau": "",
      "police_station": "",
      "irs": "",
      "home_office": ""
    }
  },
  {
    "model": "yfcases.township",
    "pk": 72,
    "fields": {
      "city": 8,
      "city_name": "新竹縣",
      "name": "新埔鎮",
      "zip_code": "305",
      "district_court": "",
      "land_office": "",
      "finance_and_tax_bureau": "",
      "police_station": "",
      "irs": "",
      "home_office": ""
    }
  },
  {
    "model": "yfcases.township",
    "pk": 73,
    "fields": {
      "city": 8,
      "city_name": "新竹縣",
      "name": "關西鎮",
      "zip_code": "306",
      "district_court": "",
      "land_office": "",
      "finance_and_tax_bureau": "",
      "police_station": "",
      "irs": "",
      "home_office": ""
    }
  },
  {
    "model": "yfcases.township",
    "pk": 74,
    "fields": {
      "city": 8,
      "city_name": "新竹縣",
      "name": "芎林鄉",
      "zip_code": "307",
      "district_court": "",
      "land_office": "",
      "finance_and_tax_bureau": "",
      "police_station": "",
      "irs": "",
      "home_office": ""
    }
  },
  {
    "model": "yfcases.township",
    "pk": 75,
    "fields": {
      "city": 8,
      "city_name": "新竹縣",
      "name": "寶山鄉",
      "zip_code": "300",
      "district_court": "",
      "land_office": "",
      "finance_and_tax_bureau": "",
      "police_station": "",
      "irs": "",
      "home_office": ""
    }
  },
  {
    "model": "yfcases.township",
    "pk": 76,
    "fields": {
      "city": 8,
      "city_name": "新竹縣",
      "name": "竹東鎮",
      "zip_code": "310",
      "district_court": "",
      "land_office": "",
      "finance_and_tax_bureau": "",
      "police_station": "",
      "irs": "",
      "home_office": ""
    }
  },
  {
    "model": "yfcases.township",
    "pk": 77,
    "fields": {
      "city": 8,
      "city_name": "新竹縣",
      "name": "五峰鄉",
      "zip_code": "311",
      "district_court": "",
      "land_office": "",
      "finance_and_tax_bureau": "",
      "police_station": "",
      "irs": "",
      "home_office": ""
    }
  },
  {
    "model": "yfcases.township",
    "pk": 78,
    "fields": {
      "city": 8,
      "city_name": "新竹縣",
      "name": "橫山鄉",
      "zip_code": "312",
      "district_court": "",
      "land_office": "",
      "finance_and_tax_bureau": "",
      "police_station": "",
      "irs": "",
      "home_office": ""
    }
  },
  {
    "model": "yfcases.township",
    "pk": 79,
    "fields": {
      "city": 8,
      "city_name": "新竹縣",
      "name": "尖石鄉",
      "zip_code": "313",
      "district_court": "",
      "land_office": "",
      "finance_and_tax_bureau": "",
      "police_station": "",
      "irs": "",
      "home_office": ""
    }
  },
  {
    "model": "yfcases.township",
    "pk": 80,
    "fields": {
      "city": 8,
      "city_name": "新竹縣",
      "name": "北埔鄉",
      "zip_code": "314",
      "district_court": "",
      "land_office": "",
      "finance_and_tax_bureau": "",
      "police_station": "",
      "irs": "",
      "home_office": ""
    }
  },
  {
    "model": "yfcases.township",
    "pk": 81,
    "fields": {
      "city": 8,
      "city_name": "新竹縣",
      "name": "峨眉鄉",
      "zip_code": "315",
      "district_court": "",
      "land_office": "",
      "finance_and_tax_bureau": "",
      "police_station": "",
      "irs": "",
      "home_office": ""
    }
  },
  {
    "model": "yfcases.township",
    "pk": 82,
    "fields": {
      "city": 9,
      "city_name": "桃園市",
      "name": "中壢區",
      "zip_code": "320",
      "district_court": "",
      "land_office": "",
      "finance_and_tax_bureau": "",
      "police_station": "",
      "irs": "",
      "home_office": ""
    }
  },
  {
    "model": "yfcases.township",
    "pk": 83,
    "fields": {
      "city": 9,
      "city_name": "桃園市",
      "name": "平鎮區",
      "zip_code": "324",
      "district_court": "",
      "land_office": "",
      "finance_and_tax_bureau": "",
      "police_station": "",
      "irs": "",
      "home_office": ""
    }
  },
  {
    "model": "yfcases.township",
    "pk": 84,
    "fields": {
      "city": 9,
      "city_name": "桃園市",
      "name": "龍潭區",
      "zip_code": "325",
      "district_court": "",
      "land_office": "",
      "finance_and_tax_bureau": "",
      "police_station": "",
      "irs": "",
      "home_office": ""
    }
  },
  {
    "model": "yfcases.township",
    "pk": 85,
    "fields": {
      "city": 9,
      "city_name": "桃園市",
      "name": "楊梅區",
      "zip_code": "326",
      "district_court": "",
      "land_office": "",
      "finance_and_tax_bureau": "",
      "police_station": "",
      "irs": "",
      "home_office": ""
    }
  },
  {
    "model": "yfcases.township",
    "pk": 86,
    "fields": {
      "city": 9,
      "city_name": "桃園市",
      "name": "新屋區",
      "zip_code": "327",
      "district_court": "",
      "land_office": "",
      "finance_and_tax_bureau": "",
      "police_station": "",
      "irs": "",
      "home_office": ""
    }
  },
  {
    "model": "yfcases.township",
    "pk": 87,
    "fields": {
      "city": 9,
      "city_name": "桃園市",
      "name": "觀音區",
      "zip_code": "328",
      "district_court": "",
      "land_office": "",
      "finance_and_tax_bureau": "",
      "police_station": "",
      "irs": "",
      "home_office": ""
    }
  },
  {
    "model": "yfcases.township",
    "pk": 88,
    "fields": {
      "city": 9,
      "city_name": "桃園市",
      "name": "桃園區",
      "zip_code": "330",
      "district_court": "",
      "land_office": "",
      "finance_and_tax_bureau": "",
      "police_station": "",
      "irs": "",
      "home_office": ""
    }
  },
  {
    "model": "yfcases.township",
    "pk": 89,
    "fields": {
      "city": 9,
      "city_name": "桃園市",
      "name": "龜山區",
      "zip_code": "333",
      "district_court": "",
      "land_office": "",
      "finance_and_tax_bureau": "",
      "police_station": "",
      "irs": "",
      "home_office": ""
    }
  },
  {
    "model": "yfcases.township",
    "pk": 90,
    "fields": {
      "city": 9,
      "city_name": "桃園市",
      "name": "八德區",
      "zip_code": "334",
      "district_court": "",
      "land_office": "",
      "finance_and_tax_bureau": "",
      "police_station": "",
      "irs": "",
      "home_office": ""
    }
  },
  {
    "model": "yfcases.township",
    "pk": 91,
    "fields": {
      "city": 9,
      "city_name": "桃園市",
      "name": "大溪區",
      "zip_code": "335",
      "district_court": "",
      "land_office": "",
      "finance_and_tax_bureau": "",
      "police_station": "",
      "irs": "",
      "home_office": ""
    }
  },
  {
    "model": "yfcases.township",
    "pk": 92,
    "fields": {
      "city": 9,
      "city_name": "桃園市",
      "name": "復興區",
      "zip_code": "336",
      "district_court": "",
      "land_office": "",
      "finance_and_tax_bureau": "",
      "police_station": "",
      "irs": "",
      "home_office": ""
    }
  },
  {
    "model": "yfcases.township",
    "pk": 93,
    "fields": {
      "city": 9,
      "city_name": "桃園市",
      "name": "大園區",
      "zip_code": "337",
      "district_court": "",
      "land_office": "",
      "finance_and_tax_bureau": "",
      "police_station": "",
      "irs": "",
      "home_office": ""
    }
  },
  {
    "model": "yfcases.township",
    "pk": 94,
    "fields": {
      "city": 9,
      "city_name": "桃園市",
      "name": "蘆竹區",
      "zip_code": "338",
      "district_court": "",
      "land_office": "",
      "finance_and_tax_bureau": "",
      "police_station": "",
      "irs": "",
      "home_office": ""
    }
  },
  {
    "model": "yfcases.township",
    "pk": 95,
    "fields": {
      "city": 10,
      "city_name": "苗栗縣",
      "name": "竹南鎮",
      "zip_code": "350",
      "district_court": "",
      "land_office": "",
      "finance_and_tax_bureau": "",
      "police_station": "",
      "irs": "",
      "home_office": ""
    }
  },
  {
    "model": "yfcases.township",
    "pk": 96,
    "fields": {
      "city": 10,
      "city_name": "苗栗縣",
      "name": "頭份市",
      "zip_code": "351",
      "district_court": "",
      "land_office": "",
      "finance_and_tax_bureau": "",
      "police_station": "",
      "irs": "",
      "home_office": ""
    }
  },
  {
    "model": "yfcases.township",
    "pk": 97,
    "fields": {
      "city": 10,
      "city_name": "苗栗縣",
      "name": "三灣鄉",
      "zip_code": "352",
      "district_court": "",
      "land_office": "",
      "finance_and_tax_bureau": "",
      "police_station": "",
      "irs": "",
      "home_office": ""
    }
  },
  {
    "model": "yfcases.township",
    "pk": 98,
    "fields": {
      "city": 10,
      "city_name": "苗栗縣",
      "name": "南庄鄉",
      "zip_code": "353",
      "district_court": "",
      "land_office": "",
      "finance_and_tax_bureau": "",
      "police_station": "",
      "irs": "",
      "home_office": ""
    }
  },
  {
    "model": "yfcases.township",
    "pk": 99,
    "fields": {
      "city": 10,
      "city_name": "苗栗縣",
      "name": "獅潭鄉",
      "zip_code": "354",
      "district_court": "",
      "land_office": "",
      "finance_and_tax_bureau": "",
      "police_station": "",
      "irs": "",
      "home_office": ""
    }
  },
  {
    "model": "yfcases.township",
    "pk": 100,
    "fields": {
      "city": 10,
      "city_name": "苗栗縣",
      "name": "後龍鎮",
      "zip_code": "356",
      "district_court": "",
      "land_office": "",
      "finance_and_tax_bureau": "",
      "police_station": "",
      "irs": "",
      "home_office": ""
    }
  },
  {
    "model": "yfcases.township",
    "pk": 101,
    "fields": {
      "city": 10,
      "city_name": "苗栗縣",
      "name": "通霄鎮",
      "zip_code": "357",
      "district_court": "",
      "land_office": "",
      "finance_and_tax_bureau": "",
      "police_station": "",
      "irs": "",
      "home_office": ""
    }
  },
  {
    "model": "yfcases.township",
    "pk": 102,
    "fields": {
      "city": 10,
      "city_name": "苗栗縣",
      "name": "苑裡鎮",
      "zip_code": "358",
      "district_court": "",
      "land_office": "",
      "finance_and_tax_bureau": "",
      "police_station": "",
      "irs": "",
      "home_office": ""
    }
  },
  {
    "model": "yfcases.township",
    "pk": 103,
    "fields": {
      "city": 10,
      "city_name": "苗栗縣",
      "name": "苗栗市",
      "zip_code": "360",
      "district_court": "",
      "land_office": "",
      "finance_and_tax_bureau": "",
      "police_station": "",
      "irs": "",
      "home_office": ""
    }
  },
  {
    "model": "yfcases.township",
    "pk": 104,
    "fields": {
      "city": 10,
      "city_name": "苗栗縣",
      "name": "造橋鄉",
      "zip_code": "361",
      "district_court": "",
      "land_office": "",
      "finance_and_tax_bureau": "",
      "police_station": "",
      "irs": "",
      "home_office": ""
    }
  },
  {
    "model": "yfcases.township",
    "pk": 105,
    "fields": {
      "city": 10,
      "city_name": "苗栗縣",
      "name": "頭屋鄉",
      "zip_code": "362",
      "district_court": "",
      "land_office": "",
      "finance_and_tax_bureau": "",
      "police_station": "",
      "irs": "",
      "home_office": ""
    }
  },
  {
    "model": "yfcases.township",
    "pk": 106,
    "fields": {
      "city": 10,
      "city_name": "苗栗縣",
      "name": "公館鄉",
      "zip_code": "363",
      "district_court": "",
      "land_office": "",
      "finance_and_tax_bureau": "",
      "police_station": "",
      "irs": "",
      "home_office": ""
    }
  },
  {
    "model": "yfcases.township",
    "pk": 107,
    "fields": {
      "city": 10,
      "city_name": "苗栗縣",
      "name": "大湖鄉",
      "zip_code": "364",
      "district_court": "",
      "land_office": "",
      "finance_and_tax_bureau": "",
      "police_station": "",
      "irs": "",
      "home_office": ""
    }
  },
  {
    "model": "yfcases.township",
    "pk": 108,
    "fields": {
      "city": 10,
      "city_name": "苗栗縣",
      "name": "泰安鄉",
      "zip_code": "365",
      "district_court": "",
      "land_office": "",
      "finance_and_tax_bureau": "",
      "police_station": "",
      "irs": "",
      "home_office": ""
    }
  },
  {
    "model": "yfcases.township",
    "pk": 109,
    "fields": {
      "city": 10,
      "city_name": "苗栗縣",
      "name": "銅鑼鄉",
      "zip_code": "366",
      "district_court": "",
      "land_office": "",
      "finance_and_tax_bureau": "",
      "police_station": "",
      "irs": "",
      "home_office": ""
    }
  },
  {
    "model": "yfcases.township",
    "pk": 110,
    "fields": {
      "city": 10,
      "city_name": "苗栗縣",
      "name": "三義鄉",
      "zip_code": "367",
      "district_court": "",
      "land_office": "",
      "finance_and_tax_bureau": "",
      "police_station": "",
      "irs": "",
      "home_office": ""
    }
  },
  {
    "model": "yfcases.township",
    "pk": 111,
    "fields": {
      "city": 10,
      "city_name": "苗栗縣",
      "name": "西湖鄉",
      "zip_code": "368",
      "district_court": "",
      "land_office": "",
      "finance_and_tax_bureau": "",
      "police_station": "",
      "irs": "",
      "home_office": ""
    }
  },
  {
    "model": "yfcases.township",
    "pk": 112,
    "fields": {
      "city": 10,
      "city_name": "苗栗縣",
      "name": "卓蘭鎮",
      "zip_code": "369",
      "district_court": "",
      "land_office": "",
      "finance_and_tax_bureau": "",
      "police_station": "",
      "irs": "",
      "home_office": ""
    }
  },
  {
    "model": "yfcases.township",
    "pk": 113,
    "fields": {
      "city": 11,
      "city_name": "臺中市",
      "name": "中區",
      "zip_code": "400",
      "district_court": "",
      "land_office": "",
      "finance_and_tax_bureau": "",
      "police_station": "",
      "irs": "",
      "home_office": ""
    }
  },
  {
    "model": "yfcases.township",
    "pk": 114,
    "fields": {
      "city": 7,
      "city_name": "新竹市",
      "name": "東區",
      "zip_code": "300",
      "district_court": "",
      "land_office": "",
      "finance_and_tax_bureau": "",
      "police_station": "",
      "irs": "",
      "home_office": ""
    }
  },
  {
    "model": "yfcases.township",
    "pk": 115,
    "fields": {
      "city": 11,
      "city_name": "臺中市",
      "name": "南區",
      "zip_code": "402",
      "district_court": "",
      "land_office": "",
      "finance_and_tax_bureau": "",
      "police_station": "",
      "irs": "",
      "home_office": ""
    }
  },
  {
    "model": "yfcases.township",
    "pk": 116,
    "fields": {
      "city": 11,
      "city_name": "臺中市",
      "name": "西區",
      "zip_code": "403",
      "district_court": "",
      "land_office": "",
      "finance_and_tax_bureau": "",
      "police_station": "",
      "irs": "",
      "home_office": ""
    }
  },
  {
    "model": "yfcases.township",
    "pk": 117,
    "fields": {
      "city": 7,
      "city_name": "新竹市",
      "name": "北區",
      "zip_code": "300",
      "district_court": "",
      "land_office": "",
      "finance_and_tax_bureau": "",
      "police_station": "",
      "irs": "",
      "home_office": ""
    }
  },
  {
    "model": "yfcases.township",
    "pk": 118,
    "fields": {
      "city": 11,
      "city_name": "臺中市",
      "name": "北屯區",
      "zip_code": "406",
      "district_court": "臺中",
      "land_office": "中正",
      "finance_and_tax_bureau": "東山分局",
      "police_station": "",
      "irs": "",
      "home_office": ""
    }
  },
  {
    "model": "yfcases.township",
    "pk": 119,
    "fields": {
      "city": 11,
      "city_name": "臺中市",
      "name": "西屯區",
      "zip_code": "407",
      "district_court": "臺中",
      "land_office": "中興",
      "finance_and_tax_bureau": "文心分局",
      "police_station": "",
      "irs": "",
      "home_office": ""
    }
  },
  {
    "model": "yfcases.township",
    "pk": 120,
    "fields": {
      "city": 11,
      "city_name": "臺中市",
      "name": "南屯區",
      "zip_code": "408",
      "district_court": "臺中",
      "land_office": "中興",
      "finance_and_tax_bureau": "文心分局",
      "police_station": "",
      "irs": "",
      "home_office": ""
    }
  },
  {
    "model": "yfcases.township",
    "pk": 121,
    "fields": {
      "city": 11,
      "city_name": "臺中市",
      "name": "太平區",
      "zip_code": "411",
      "district_court": "臺中",
      "land_office": "太平",
      "finance_and_tax_bureau": "大屯分局",
      "police_station": "",
      "irs": "",
      "home_office": ""
    }
  },
  {
    "model": "yfcases.township",
    "pk": 122,
    "fields": {
      "city": 11,
      "city_name": "臺中市",
      "name": "大里區",
      "zip_code": "412",
      "district_court": "臺中",
      "land_office": "大里",
      "finance_and_tax_bureau": "大屯分局",
      "police_station": "",
      "irs": "",
      "home_office": ""
    }
  },
  {
    "model": "yfcases.township",
    "pk": 123,
    "fields": {
      "city": 11,
      "city_name": "臺中市",
      "name": "霧峰區",
      "zip_code": "413",
      "district_court": "臺中",
      "land_office": "大里",
      "finance_and_tax_bureau": "大屯分局",
      "police_station": "",
      "irs": "",
      "home_office": ""
    }
  },
  {
    "model": "yfcases.township",
    "pk": 124,
    "fields": {
      "city": 11,
      "city_name": "臺中市",
      "name": "烏日區",
      "zip_code": "414",
      "district_court": "臺中",
      "land_office": "大里",
      "finance_and_tax_bureau": "大屯分局",
      "police_station": "",
      "irs": "",
      "home_office": ""
    }
  },
  {
    "model": "yfcases.township",
    "pk": 125,
    "fields": {
      "city": 11,
      "city_name": "臺中市",
      "name": "豐原區",
      "zip_code": "420",
      "district_court": "臺中",
      "land_office": "豐原",
      "finance_and_tax_bureau": "豐原分局",
      "police_station": "",
      "irs": "",
      "home_office": ""
    }
  },
  {
    "model": "yfcases.township",
    "pk": 126,
    "fields": {
      "city": 11,
      "city_name": "臺中市",
      "name": "后里區",
      "zip_code": "421",
      "district_court": "臺中",
      "land_office": "豐原",
      "finance_and_tax_bureau": "豐原分局",
      "police_station": "",
      "irs": "",
      "home_office": ""
    }
  },
  {
    "model": "yfcases.township",
    "pk": 127,
    "fields": {
      "city": 11,
      "city_name": "臺中市",
      "name": "石岡區",
      "zip_code": "422",
      "district_court": "臺中",
      "land_office": "東勢",
      "finance_and_tax_bureau": "東勢分局",
      "police_station": "",
      "irs": "",
      "home_office": ""
    }
  },
  {
    "model": "yfcases.township",
    "pk": 128,
    "fields": {
      "city": 11,
      "city_name": "臺中市",
      "name": "東勢區",
      "zip_code": "423",
      "district_court": "臺中",
      "land_office": "東勢",
      "finance_and_tax_bureau": "東勢分局",
      "police_station": "",
      "irs": "",
      "home_office": ""
    }
  },
  {
    "model": "yfcases.township",
    "pk": 129,
    "fields": {
      "city": 11,
      "city_name": "臺中市",
      "name": "和平區",
      "zip_code": "424",
      "district_court": "臺中",
      "land_office": "東勢",
      "finance_and_tax_bureau": "東勢分局",
      "police_station": "",
      "irs": "",
      "home_office": ""
    }
  },
  {
    "model": "yfcases.township",
    "pk": 130,
    "fields": {
      "city": 11,
      "city_name": "臺中市",
      "name": "新社區",
      "zip_code": "426",
      "district_court": "臺中",
      "land_office": "東勢",
      "finance_and_tax_bureau": "東勢分局",
      "police_station": "",
      "irs": "",
      "home_office": ""
    }
  },
  {
    "model": "yfcases.township",
    "pk": 131,
    "fields": {
      "city": 11,
      "city_name": "臺中市",
      "name": "潭子區",
      "zip_code": "427",
      "district_court": "臺中",
      "land_office": "雅潭",
      "finance_and_tax_bureau": "豐原分局",
      "police_station": "",
      "irs": "",
      "home_office": ""
    }
  },
  {
    "model": "yfcases.township",
    "pk": 132,
    "fields": {
      "city": 11,
      "city_name": "臺中市",
      "name": "大雅區",
      "zip_code": "428",
      "district_court": "臺中",
      "land_office": "雅潭",
      "finance_and_tax_bureau": "豐原分局",
      "police_station": "",
      "irs": "",
      "home_office": ""
    }
  },
  {
    "model": "yfcases.township",
    "pk": 133,
    "fields": {
      "city": 11,
      "city_name": "臺中市",
      "name": "神岡區",
      "zip_code": "429",
      "district_court": "臺中",
      "land_office": "豐原",
      "finance_and_tax_bureau": "豐原分局",
      "police_station": "",
      "irs": "",
      "home_office": ""
    }
  },
  {
    "model": "yfcases.township",
    "pk": 134,
    "fields": {
      "city": 11,
      "city_name": "臺中市",
      "name": "大肚區",
      "zip_code": "432",
      "district_court": "臺中",
      "land_office": "龍井",
      "finance_and_tax_bureau": "沙鹿分局",
      "police_station": "",
      "irs": "",
      "home_office": ""
    }
  },
  {
    "model": "yfcases.township",
    "pk": 135,
    "fields": {
      "city": 11,
      "city_name": "臺中市",
      "name": "沙鹿區",
      "zip_code": "433",
      "district_court": "臺中",
      "land_office": "清水",
      "finance_and_tax_bureau": "沙鹿分局",
      "police_station": "",
      "irs": "",
      "home_office": ""
    }
  },
  {
    "model": "yfcases.township",
    "pk": 136,
    "fields": {
      "city": 11,
      "city_name": "臺中市",
      "name": "龍井區",
      "zip_code": "434",
      "district_court": "臺中",
      "land_office": "龍井",
      "finance_and_tax_bureau": "沙鹿分局",
      "police_station": "",
      "irs": "",
      "home_office": ""
    }
  },
  {
    "model": "yfcases.township",
    "pk": 137,
    "fields": {
      "city": 11,
      "city_name": "臺中市",
      "name": "梧棲區",
      "zip_code": "435",
      "district_court": "臺中",
      "land_office": "清水",
      "finance_and_tax_bureau": "沙鹿分局",
      "police_station": "",
      "irs": "",
      "home_office": ""
    }
  },
  {
    "model": "yfcases.township",
    "pk": 138,
    "fields": {
      "city": 11,
      "city_name": "臺中市",
      "name": "清水區",
      "zip_code": "436",
      "district_court": "臺中",
      "land_office": "清水",
      "finance_and_tax_bureau": "沙鹿分局",
      "police_station": "",
      "irs": "",
      "home_office": ""
    }
  },
  {
    "model": "yfcases.township",
    "pk": 139,
    "fields": {
      "city": 11,
      "city_name": "臺中市",
      "name": "大甲區",
      "zip_code": "437",
      "district_court": "臺中",
      "land_office": "大甲",
      "finance_and_tax_bureau": "沙鹿分局",
      "police_station": "",
      "irs": "",
      "home_office": ""
    }
  },
  {
    "model": "yfcases.township",
    "pk": 140,
    "fields": {
      "city": 11,
      "city_name": "臺中市",
      "name": "外埔區",
      "zip_code": "438",
      "district_court": "臺中",
      "land_office": "大甲",
      "finance_and_tax_bureau": "沙鹿分局",
      "police_station": "",
      "irs": "",
      "home_office": ""
    }
  },
  {
    "model": "yfcases.township",
    "pk": 141,
    "fields": {
      "city": 1,
      "city_name": "臺北市",
      "name": "大安區",
      "zip_code": "106",
      "district_court": "臺北",
      "land_office": "大安",
      "finance_and_tax_bureau": "大安分處",
      "police_station": "",
      "irs": "",
      "home_office": ""
    }
  },
  {
    "model": "yfcases.township",
    "pk": 142,
    "fields": {
      "city": 12,
      "city_name": "彰化縣",
      "name": "彰化市",
      "zip_code": "500",
      "district_court": "",
      "land_office": "",
      "finance_and_tax_bureau": "",
      "police_station": "",
      "irs": "",
      "home_office": ""
    }
  },
  {
    "model": "yfcases.township",
    "pk": 143,
    "fields": {
      "city": 12,
      "city_name": "彰化縣",
      "name": "芬園鄉",
      "zip_code": "502",
      "district_court": "",
      "land_office": "",
      "finance_and_tax_bureau": "",
      "police_station": "",
      "irs": "",
      "home_office": ""
    }
  },
  {
    "model": "yfcases.township",
    "pk": 144,
    "fields": {
      "city": 12,
      "city_name": "彰化縣",
      "name": "花壇鄉",
      "zip_code": "503",
      "district_court": "",
      "land_office": "",
      "finance_and_tax_bureau": "",
      "police_station": "",
      "irs": "",
      "home_office": ""
    }
  },
  {
    "model": "yfcases.township",
    "pk": 145,
    "fields": {
      "city": 12,
      "city_name": "彰化縣",
      "name": "秀水鄉",
      "zip_code": "504",
      "district_court": "",
      "land_office": "",
      "finance_and_tax_bureau": "",
      "police_station": "",
      "irs": "",
      "home_office": ""
    }
  },
  {
    "model": "yfcases.township",
    "pk": 146,
    "fields": {
      "city": 12,
      "city_name": "彰化縣",
      "name": "鹿港鎮",
      "zip_code": "505",
      "district_court": "",
      "land_office": "",
      "finance_and_tax_bureau": "",
      "police_station": "",
      "irs": "",
      "home_office": ""
    }
  },
  {
    "model": "yfcases.township",
    "pk": 147,
    "fields": {
      "city": 12,
      "city_name": "彰化縣",
      "name": "福興鄉",
      "zip_code": "506",
      "district_court": "",
      "land_office": "",
      "finance_and_tax_bureau": "",
      "police_station": "",
      "irs": "",
      "home_office": ""
    }
  },
  {
    "model": "yfcases.township",
    "pk": 148,
    "fields": {
      "city": 12,
      "city_name": "彰化縣",
      "name": "線西鄉",
      "zip_code": "507",
      "district_court": "",
      "land_office": "",
      "finance_and_tax_bureau": "",
      "police_station": "",
      "irs": "",
      "home_office": ""
    }
  },
  {
    "model": "yfcases.township",
    "pk": 149,
    "fields": {
      "city": 12,
      "city_name": "彰化縣",
      "name": "和美鎮",
      "zip_code": "508",
      "district_court": "",
      "land_office": "",
      "finance_and_tax_bureau": "",
      "police_station": "",
      "irs": "",
      "home_office": ""
    }
  },
  {
    "model": "yfcases.township",
    "pk": 150,
    "fields": {
      "city": 12,
      "city_name": "彰化縣",
      "name": "伸港鄉",
      "zip_code": "509",
      "district_court": "",
      "land_office": "",
      "finance_and_tax_bureau": "",
      "police_station": "",
      "irs": "",
      "home_office": ""
    }
  },
  {
    "model": "yfcases.township",
    "pk": 151,
    "fields": {
      "city": 12,
      "city_name": "彰化縣",
      "name": "員林市",
      "zip_code": "510",
      "district_court": "",
      "land_office": "",
      "finance_and_tax_bureau": "",
      "police_station": "",
      "irs": "",
      "home_office": ""
    }
  },
  {
    "model": "yfcases.township",
    "pk": 152,
    "fields": {
      "city": 12,
      "city_name": "彰化縣",
      "name": "社頭鄉",
      "zip_code": "511",
      "district_court": "",
      "land_office": "",
      "finance_and_tax_bureau": "",
      "police_station": "",
      "irs": "",
      "home_office": ""
    }
  },
  {
    "model": "yfcases.township",
    "pk": 153,
    "fields": {
      "city": 12,
      "city_name": "彰化縣",
      "name": "永靖鄉",
      "zip_code": "512",
      "district_court": "",
      "land_office": "",
      "finance_and_tax_bureau": "",
      "police_station": "",
      "irs": "",
      "home_office": ""
    }
  },
  {
    "model": "yfcases.township",
    "pk": 154,
    "fields": {
      "city": 12,
      "city_name": "彰化縣",
      "name": "埔心鄉",
      "zip_code": "513",
      "district_court": "",
      "land_office": "",
      "finance_and_tax_bureau": "",
      "police_station": "",
      "irs": "",
      "home_office": ""
    }
  },
  {
    "model": "yfcases.township",
    "pk": 155,
    "fields": {
      "city": 12,
      "city_name": "彰化縣",
      "name": "溪湖鎮",
      "zip_code": "514",
      "district_court": "",
      "land_office": "",
      "finance_and_tax_bureau": "",
      "police_station": "",
      "irs": "",
      "home_office": ""
    }
  },
  {
    "model": "yfcases.township",
    "pk": 156,
    "fields": {
      "city": 12,
      "city_name": "彰化縣",
      "name": "大村鄉",
      "zip_code": "515",
      "district_court": "",
      "land_office": "",
      "finance_and_tax_bureau": "",
      "police_station": "",
      "irs": "",
      "home_office": ""
    }
  },
  {
    "model": "yfcases.township",
    "pk": 157,
    "fields": {
      "city": 12,
      "city_name": "彰化縣",
      "name": "埔鹽鄉",
      "zip_code": "516",
      "district_court": "",
      "land_office": "",
      "finance_and_tax_bureau": "",
      "police_station": "",
      "irs": "",
      "home_office": ""
    }
  },
  {
    "model": "yfcases.township",
    "pk": 158,
    "fields": {
      "city": 12,
      "city_name": "彰化縣",
      "name": "田中鎮",
      "zip_code": "520",
      "district_court": "",
      "land_office": "",
      "finance_and_tax_bureau": "",
      "police_station": "",
      "irs": "",
      "home_office": ""
    }
  },
  {
    "model": "yfcases.township",
    "pk": 159,
    "fields": {
      "city": 12,
      "city_name": "彰化縣",
      "name": "北斗鎮",
      "zip_code": "521",
      "district_court": "",
      "land_office": "",
      "finance_and_tax_bureau": "",
      "police_station": "",
      "irs": "",
      "home_office": ""
    }
  },
  {
    "model": "yfcases.township",
    "pk": 160,
    "fields": {
      "city": 12,
      "city_name": "彰化縣",
      "name": "田尾鄉",
      "zip_code": "522",
      "district_court": "",
      "land_office": "",
      "finance_and_tax_bureau": "",
      "police_station": "",
      "irs": "",
      "home_office": ""
    }
  },
  {
    "model": "yfcases.township",
    "pk": 161,
    "fields": {
      "city": 12,
      "city_name": "彰化縣",
      "name": "埤頭鄉",
      "zip_code": "523",
      "district_court": "",
      "land_office": "",
      "finance_and_tax_bureau": "",
      "police_station": "",
      "irs": "",
      "home_office": ""
    }
  },
  {
    "model": "yfcases.township",
    "pk": 162,
    "fields": {
      "city": 12,
      "city_name": "彰化縣",
      "name": "溪州鄉",
      "zip_code": "524",
      "district_court": "",
      "land_office": "",
      "finance_and_tax_bureau": "",
      "police_station": "",
      "irs": "",
      "home_office": ""
    }
  },
  {
    "model": "yfcases.township",
    "pk": 163,
    "fields": {
      "city": 12,
      "city_name": "彰化縣",
      "name": "竹塘鄉",
      "zip_code": "525",
      "district_court": "",
      "land_office": "",
      "finance_and_tax_bureau": "",
      "police_station": "",
      "irs": "",
      "home_office": ""
    }
  },
  {
    "model": "yfcases.township",
    "pk": 164,
    "fields": {
      "city": 12,
      "city_name": "彰化縣",
      "name": "二林鎮",
      "zip_code": "526",
      "district_court": "",
      "land_office": "",
      "finance_and_tax_bureau": "",
      "police_station": "",
      "irs": "",
      "home_office": ""
    }
  },
  {
    "model": "yfcases.township",
    "pk": 165,
    "fields": {
      "city": 12,
      "city_name": "彰化縣",
      "name": "大城鄉",
      "zip_code": "527",
      "district_court": "",
      "land_office": "",
      "finance_and_tax_bureau": "",
      "police_station": "",
      "irs": "",
      "home_office": ""
    }
  },
  {
    "model": "yfcases.township",
    "pk": 166,
    "fields": {
      "city": 12,
      "city_name": "彰化縣",
      "name": "芳苑鄉",
      "zip_code": "528",
      "district_court": "",
      "land_office": "",
      "finance_and_tax_bureau": "",
      "police_station": "",
      "irs": "",
      "home_office": ""
    }
  },
  {
    "model": "yfcases.township",
    "pk": 167,
    "fields": {
      "city": 12,
      "city_name": "彰化縣",
      "name": "二水鄉",
      "zip_code": "530",
      "district_court": "",
      "land_office": "",
      "finance_and_tax_bureau": "",
      "police_station": "",
      "irs": "",
      "home_office": ""
    }
  },
  {
    "model": "yfcases.township",
    "pk": 168,
    "fields": {
      "city": 13,
      "city_name": "南投縣",
      "name": "南投市",
      "zip_code": "540",
      "district_court": "",
      "land_office": "",
      "finance_and_tax_bureau": "",
      "police_station": "",
      "irs": "",
      "home_office": ""
    }
  },
  {
    "model": "yfcases.township",
    "pk": 169,
    "fields": {
      "city": 13,
      "city_name": "南投縣",
      "name": "中寮鄉",
      "zip_code": "541",
      "district_court": "",
      "land_office": "",
      "finance_and_tax_bureau": "",
      "police_station": "",
      "irs": "",
      "home_office": ""
    }
  },
  {
    "model": "yfcases.township",
    "pk": 170,
    "fields": {
      "city": 13,
      "city_name": "南投縣",
      "name": "草屯鎮",
      "zip_code": "542",
      "district_court": "",
      "land_office": "",
      "finance_and_tax_bureau": "",
      "police_station": "",
      "irs": "",
      "home_office": ""
    }
  },
  {
    "model": "yfcases.township",
    "pk": 171,
    "fields": {
      "city": 13,
      "city_name": "南投縣",
      "name": "國姓鄉",
      "zip_code": "544",
      "district_court": "",
      "land_office": "",
      "finance_and_tax_bureau": "",
      "police_station": "",
      "irs": "",
      "home_office": ""
    }
  },
  {
    "model": "yfcases.township",
    "pk": 172,
    "fields": {
      "city": 13,
      "city_name": "南投縣",
      "name": "埔里鎮",
      "zip_code": "545",
      "district_court": "",
      "land_office": "",
      "finance_and_tax_bureau": "",
      "police_station": "",
      "irs": "",
      "home_office": ""
    }
  },
  {
    "model": "yfcases.township",
    "pk": 173,
    "fields": {
      "city": 13,
      "city_name": "南投縣",
      "name": "仁愛鄉",
      "zip_code": "546",
      "district_court": "",
      "land_office": "",
      "finance_and_tax_bureau": "",
      "police_station": "",
      "irs": "",
      "home_office": ""
    }
  },
  {
    "model": "yfcases.township",
    "pk": 174,
    "fields": {
      "city": 13,
      "city_name": "南投縣",
      "name": "名間鄉",
      "zip_code": "551",
      "district_court": "",
      "land_office": "",
      "finance_and_tax_bureau": "",
      "police_station": "",
      "irs": "",
      "home_office": ""
    }
  },
  {
    "model": "yfcases.township",
    "pk": 175,
    "fields": {
      "city": 13,
      "city_name": "南投縣",
      "name": "集集鎮",
      "zip_code": "552",
      "district_court": "",
      "land_office": "",
      "finance_and_tax_bureau": "",
      "police_station": "",
      "irs": "",
      "home_office": ""
    }
  },
  {
    "model": "yfcases.township",
    "pk": 176,
    "fields": {
      "city": 13,
      "city_name": "南投縣",
      "name": "水里鄉",
      "zip_code": "553",
      "district_court": "",
      "land_office": "",
      "finance_and_tax_bureau": "",
      "police_station": "",
      "irs": "",
      "home_office": ""
    }
  },
  {
    "model": "yfcases.township",
    "pk": 177,
    "fields": {
      "city": 13,
      "city_name": "南投縣",
      "name": "魚池鄉",
      "zip_code": "555",
      "district_court": "",
      "land_office": "",
      "finance_and_tax_bureau": "",
      "police_station": "",
      "irs": "",
      "home_office": ""
    }
  },
  {
    "model": "yfcases.township",
    "pk": 178,
    "fields": {
      "city": 13,
      "city_name": "南投縣",
      "name": "信義鄉",
      "zip_code": "556",
      "district_court": "",
      "land_office": "",
      "finance_and_tax_bureau": "",
      "police_station": "",
      "irs": "",
      "home_office": ""
    }
  },
  {
    "model": "yfcases.township",
    "pk": 179,
    "fields": {
      "city": 13,
      "city_name": "南投縣",
      "name": "竹山鎮",
      "zip_code": "557",
      "district_court": "",
      "land_office": "",
      "finance_and_tax_bureau": "",
      "police_station": "",
      "irs": "",
      "home_office": ""
    }
  },
  {
    "model": "yfcases.township",
    "pk": 180,
    "fields": {
      "city": 13,
      "city_name": "南投縣",
      "name": "鹿谷鄉",
      "zip_code": "558",
      "district_court": "",
      "land_office": "",
      "finance_and_tax_bureau": "",
      "police_station": "",
      "irs": "",
      "home_office": ""
    }
  },
  {
    "model": "yfcases.township",
    "pk": 181,
    "fields": {
      "city": 7,
      "city_name": "新竹市",
      "name": "東區",
      "zip_code": "300",
      "district_court": "",
      "land_office": "",
      "finance_and_tax_bureau": "",
      "police_station": "",
      "irs": "",
      "home_office": ""
    }
  },
  {
    "model": "yfcases.township",
    "pk": 182,
    "fields": {
      "city": 11,
      "city_name": "臺中市",
      "name": "西區",
      "zip_code": "403",
      "district_court": "",
      "land_office": "",
      "finance_and_tax_bureau": "",
      "police_station": "",
      "irs": "",
      "home_office": ""
    }
  },
  {
    "model": "yfcases.township",
    "pk": 183,
    "fields": {
      "city": 15,
      "city_name": "嘉義縣",
      "name": "番路鄉",
      "zip_code": "602",
      "district_court": "",
      "land_office": "",
      "finance_and_tax_bureau": "",
      "police_station": "",
      "irs": "",
      "home_office": ""
    }
  },
  {
    "model": "yfcases.township",
    "pk": 184,
    "fields": {
      "city": 15,
      "city_name": "嘉義縣",
      "name": "梅山鄉",
      "zip_code": "603",
      "district_court": "",
      "land_office": "",
      "finance_and_tax_bureau": "",
      "police_station": "",
      "irs": "",
      "home_office": ""
    }
  },
  {
    "model": "yfcases.township",
    "pk": 185,
    "fields": {
      "city": 15,
      "city_name": "嘉義縣",
      "name": "竹崎鄉",
      "zip_code": "604",
      "district_court": "",
      "land_office": "",
      "finance_and_tax_bureau": "",
      "police_station": "",
      "irs": "",
      "home_office": ""
    }
  },
  {
    "model": "yfcases.township",
    "pk": 186,
    "fields": {
      "city": 15,
      "city_name": "嘉義縣",
      "name": "阿里山鄉",
      "zip_code": "605",
      "district_court": "",
      "land_office": "",
      "finance_and_tax_bureau": "",
      "police_station": "",
      "irs": "",
      "home_office": ""
    }
  },
  {
    "model": "yfcases.township",
    "pk": 187,
    "fields": {
      "city": 15,
      "city_name": "嘉義縣",
      "name": "中埔鄉",
      "zip_code": "606",
      "district_court": "",
      "land_office": "",
      "finance_and_tax_bureau": "",
      "police_station": "",
      "irs": "",
      "home_office": ""
    }
  },
  {
    "model": "yfcases.township",
    "pk": 188,
    "fields": {
      "city": 15,
      "city_name": "嘉義縣",
      "name": "大埔鄉",
      "zip_code": "607",
      "district_court": "",
      "land_office": "",
      "finance_and_tax_bureau": "",
      "police_station": "",
      "irs": "",
      "home_office": ""
    }
  },
  {
    "model": "yfcases.township",
    "pk": 189,
    "fields": {
      "city": 15,
      "city_name": "嘉義縣",
      "name": "水上鄉",
      "zip_code": "608",
      "district_court": "",
      "land_office": "",
      "finance_and_tax_bureau": "",
      "police_station": "",
      "irs": "",
      "home_office": ""
    }
  },
  {
    "model": "yfcases.township",
    "pk": 190,
    "fields": {
      "city": 15,
      "city_name": "嘉義縣",
      "name": "鹿草鄉",
      "zip_code": "611",
      "district_court": "",
      "land_office": "",
      "finance_and_tax_bureau": "",
      "police_station": "",
      "irs": "",
      "home_office": ""
    }
  },
  {
    "model": "yfcases.township",
    "pk": 191,
    "fields": {
      "city": 15,
      "city_name": "嘉義縣",
      "name": "太保市",
      "zip_code": "612",
      "district_court": "",
      "land_office": "",
      "finance_and_tax_bureau": "",
      "police_station": "",
      "irs": "",
      "home_office": ""
    }
  },
  {
    "model": "yfcases.township",
    "pk": 192,
    "fields": {
      "city": 15,
      "city_name": "嘉義縣",
      "name": "朴子市",
      "zip_code": "613",
      "district_court": "",
      "land_office": "",
      "finance_and_tax_bureau": "",
      "police_station": "",
      "irs": "",
      "home_office": ""
    }
  },
  {
    "model": "yfcases.township",
    "pk": 193,
    "fields": {
      "city": 15,
      "city_name": "嘉義縣",
      "name": "東石鄉",
      "zip_code": "614",
      "district_court": "",
      "land_office": "",
      "finance_and_tax_bureau": "",
      "police_station": "",
      "irs": "",
      "home_office": ""
    }
  },
  {
    "model": "yfcases.township",
    "pk": 194,
    "fields": {
      "city": 15,
      "city_name": "嘉義縣",
      "name": "六腳鄉",
      "zip_code": "615",
      "district_court": "",
      "land_office": "",
      "finance_and_tax_bureau": "",
      "police_station": "",
      "irs": "",
      "home_office": ""
    }
  },
  {
    "model": "yfcases.township",
    "pk": 195,
    "fields": {
      "city": 15,
      "city_name": "嘉義縣",
      "name": "新港鄉",
      "zip_code": "616",
      "district_court": "",
      "land_office": "",
      "finance_and_tax_bureau": "",
      "police_station": "",
      "irs": "",
      "home_office": ""
    }
  },
  {
    "model": "yfcases.township",
    "pk": 196,
    "fields": {
      "city": 15,
      "city_name": "嘉義縣",
      "name": "民雄鄉",
      "zip_code": "621",
      "district_court": "",
      "land_office": "",
      "finance_and_tax_bureau": "",
      "police_station": "",
      "irs": "",
      "home_office": ""
    }
  },
  {
    "model": "yfcases.township",
    "pk": 197,
    "fields": {
      "city": 15,
      "city_name": "嘉義縣",
      "name": "大林鎮",
      "zip_code": "622",
      "district_court": "",
      "land_office": "",
      "finance_and_tax_bureau": "",
      "police_station": "",
      "irs": "",
      "home_office": ""
    }
  },
  {
    "model": "yfcases.township",
    "pk": 198,
    "fields": {
      "city": 15,
      "city_name": "嘉義縣",
      "name": "溪口鄉",
      "zip_code": "623",
      "district_court": "",
      "land_office": "",
      "finance_and_tax_bureau": "",
      "police_station": "",
      "irs": "",
      "home_office": ""
    }
  },
  {
    "model": "yfcases.township",
    "pk": 199,
    "fields": {
      "city": 15,
      "city_name": "嘉義縣",
      "name": "義竹鄉",
      "zip_code": "624",
      "district_court": "",
      "land_office": "",
      "finance_and_tax_bureau": "",
      "police_station": "",
      "irs": "",
      "home_office": ""
    }
  },
  {
    "model": "yfcases.township",
    "pk": 200,
    "fields": {
      "city": 15,
      "city_name": "嘉義縣",
      "name": "布袋鎮",
      "zip_code": "625",
      "district_court": "",
      "land_office": "",
      "finance_and_tax_bureau": "",
      "police_station": "",
      "irs": "",
      "home_office": ""
    }
  },
  {
    "model": "yfcases.township",
    "pk": 201,
    "fields": {
      "city": 16,
      "city_name": "雲林縣",
      "name": "斗南鎮",
      "zip_code": "630",
      "district_court": "",
      "land_office": "",
      "finance_and_tax_bureau": "",
      "police_station": "",
      "irs": "",
      "home_office": ""
    }
  },
  {
    "model": "yfcases.township",
    "pk": 202,
    "fields": {
      "city": 16,
      "city_name": "雲林縣",
      "name": "大埤鄉",
      "zip_code": "631",
      "district_court": "",
      "land_office": "",
      "finance_and_tax_bureau": "",
      "police_station": "",
      "irs": "",
      "home_office": ""
    }
  },
  {
    "model": "yfcases.township",
    "pk": 203,
    "fields": {
      "city": 16,
      "city_name": "雲林縣",
      "name": "虎尾鎮",
      "zip_code": "632",
      "district_court": "",
      "land_office": "",
      "finance_and_tax_bureau": "",
      "police_station": "",
      "irs": "",
      "home_office": ""
    }
  },
  {
    "model": "yfcases.township",
    "pk": 204,
    "fields": {
      "city": 16,
      "city_name": "雲林縣",
      "name": "土庫鎮",
      "zip_code": "633",
      "district_court": "",
      "land_office": "",
      "finance_and_tax_bureau": "",
      "police_station": "",
      "irs": "",
      "home_office": ""
    }
  },
  {
    "model": "yfcases.township",
    "pk": 205,
    "fields": {
      "city": 16,
      "city_name": "雲林縣",
      "name": "褒忠鄉",
      "zip_code": "634",
      "district_court": "",
      "land_office": "",
      "finance_and_tax_bureau": "",
      "police_station": "",
      "irs": "",
      "home_office": ""
    }
  },
  {
    "model": "yfcases.township",
    "pk": 206,
    "fields": {
      "city": 16,
      "city_name": "雲林縣",
      "name": "東勢鄉",
      "zip_code": "635",
      "district_court": "",
      "land_office": "",
      "finance_and_tax_bureau": "",
      "police_station": "",
      "irs": "",
      "home_office": ""
    }
  },
  {
    "model": "yfcases.township",
    "pk": 207,
    "fields": {
      "city": 16,
      "city_name": "雲林縣",
      "name": "臺西鄉",
      "zip_code": "636",
      "district_court": "",
      "land_office": "",
      "finance_and_tax_bureau": "",
      "police_station": "",
      "irs": "",
      "home_office": ""
    }
  },
  {
    "model": "yfcases.township",
    "pk": 208,
    "fields": {
      "city": 16,
      "city_name": "雲林縣",
      "name": "崙背鄉",
      "zip_code": "637",
      "district_court": "",
      "land_office": "",
      "finance_and_tax_bureau": "",
      "police_station": "",
      "irs": "",
      "home_office": ""
    }
  },
  {
    "model": "yfcases.township",
    "pk": 209,
    "fields": {
      "city": 16,
      "city_name": "雲林縣",
      "name": "麥寮鄉",
      "zip_code": "638",
      "district_court": "",
      "land_office": "",
      "finance_and_tax_bureau": "",
      "police_station": "",
      "irs": "",
      "home_office": ""
    }
  },
  {
    "model": "yfcases.township",
    "pk": 210,
    "fields": {
      "city": 16,
      "city_name": "雲林縣",
      "name": "斗六市",
      "zip_code": "640",
      "district_court": "",
      "land_office": "",
      "finance_and_tax_bureau": "",
      "police_station": "",
      "irs": "",
      "home_office": ""
    }
  },
  {
    "model": "yfcases.township",
    "pk": 211,
    "fields": {
      "city": 16,
      "city_name": "雲林縣",
      "name": "林內鄉",
      "zip_code": "643",
      "district_court": "",
      "land_office": "",
      "finance_and_tax_bureau": "",
      "police_station": "",
      "irs": "",
      "home_office": ""
    }
  },
  {
    "model": "yfcases.township",
    "pk": 212,
    "fields": {
      "city": 16,
      "city_name": "雲林縣",
      "name": "古坑鄉",
      "zip_code": "646",
      "district_court": "",
      "land_office": "",
      "finance_and_tax_bureau": "",
      "police_station": "",
      "irs": "",
      "home_office": ""
    }
  },
  {
    "model": "yfcases.township",
    "pk": 213,
    "fields": {
      "city": 16,
      "city_name": "雲林縣",
      "name": "莿桐鄉",
      "zip_code": "647",
      "district_court": "",
      "land_office": "",
      "finance_and_tax_bureau": "",
      "police_station": "",
      "irs": "",
      "home_office": ""
    }
  },
  {
    "model": "yfcases.township",
    "pk": 214,
    "fields": {
      "city": 16,
      "city_name": "雲林縣",
      "name": "西螺鎮",
      "zip_code": "648",
      "district_court": "",
      "land_office": "",
      "finance_and_tax_bureau": "",
      "police_station": "",
      "irs": "",
      "home_office": ""
    }
  },
  {
    "model": "yfcases.township",
    "pk": 215,
    "fields": {
      "city": 16,
      "city_name": "雲林縣",
      "name": "二崙鄉",
      "zip_code": "649",
      "district_court": "",
      "land_office": "",
      "finance_and_tax_bureau": "",
      "police_station": "",
      "irs": "",
      "home_office": ""
    }
  },
  {
    "model": "yfcases.township",
    "pk": 216,
    "fields": {
      "city": 16,
      "city_name": "雲林縣",
      "name": "北港鎮",
      "zip_code": "651",
      "district_court": "",
      "land_office": "",
      "finance_and_tax_bureau": "",
      "police_station": "",
      "irs": "",
      "home_office": ""
    }
  },
  {
    "model": "yfcases.township",
    "pk": 217,
    "fields": {
      "city": 16,
      "city_name": "雲林縣",
      "name": "水林鄉",
      "zip_code": "652",
      "district_court": "",
      "land_office": "",
      "finance_and_tax_bureau": "",
      "police_station": "",
      "irs": "",
      "home_office": ""
    }
  },
  {
    "model": "yfcases.township",
    "pk": 218,
    "fields": {
      "city": 16,
      "city_name": "雲林縣",
      "name": "口湖鄉",
      "zip_code": "653",
      "district_court": "",
      "land_office": "",
      "finance_and_tax_bureau": "",
      "police_station": "",
      "irs": "",
      "home_office": ""
    }
  },
  {
    "model": "yfcases.township",
    "pk": 219,
    "fields": {
      "city": 16,
      "city_name": "雲林縣",
      "name": "四湖鄉",
      "zip_code": "654",
      "district_court": "",
      "land_office": "",
      "finance_and_tax_bureau": "",
      "police_station": "",
      "irs": "",
      "home_office": ""
    }
  },
  {
    "model": "yfcases.township",
    "pk": 220,
    "fields": {
      "city": 16,
      "city_name": "雲林縣",
      "name": "元長鄉",
      "zip_code": "655",
      "district_court": "",
      "land_office": "",
      "finance_and_tax_bureau": "",
      "police_station": "",
      "irs": "",
      "home_office": ""
    }
  },
  {
    "model": "yfcases.township",
    "pk": 221,
    "fields": {
      "city": 17,
      "city_name": "臺南市",
      "name": "中西區",
      "zip_code": "700",
      "district_court": "",
      "land_office": "",
      "finance_and_tax_bureau": "",
      "police_station": "",
      "irs": "",
      "home_office": ""
    }
  },
  {
    "model": "yfcases.township",
    "pk": 222,
    "fields": {
      "city": 7,
      "city_name": "新竹市",
      "name": "東區",
      "zip_code": "300",
      "district_court": "",
      "land_office": "",
      "finance_and_tax_bureau": "",
      "police_station": "",
      "irs": "",
      "home_office": ""
    }
  },
  {
    "model": "yfcases.township",
    "pk": 223,
    "fields": {
      "city": 11,
      "city_name": "臺中市",
      "name": "南區",
      "zip_code": "402",
      "district_court": "",
      "land_office": "",
      "finance_and_tax_bureau": "",
      "police_station": "",
      "irs": "",
      "home_office": ""
    }
  },
  {
    "model": "yfcases.township",
    "pk": 224,
    "fields": {
      "city": 7,
      "city_name": "新竹市",
      "name": "北區",
      "zip_code": "300",
      "district_court": "",
      "land_office": "",
      "finance_and_tax_bureau": "",
      "police_station": "",
      "irs": "",
      "home_office": ""
    }
  },
  {
    "model": "yfcases.township",
    "pk": 225,
    "fields": {
      "city": 17,
      "city_name": "臺南市",
      "name": "安平區",
      "zip_code": "708",
      "district_court": "臺南",
      "land_office": "臺南",
      "finance_and_tax_bureau": "臺南分局",
      "police_station": "",
      "irs": "臺南分局",
      "home_office": ""
    }
  },
  {
    "model": "yfcases.township",
    "pk": 226,
    "fields": {
      "city": 17,
      "city_name": "臺南市",
      "name": "安南區",
      "zip_code": "709",
      "district_court": "臺南",
      "land_office": "安南",
      "finance_and_tax_bureau": "安南分局",
      "police_station": "",
      "irs": "安南稽徵所",
      "home_office": ""
    }
  },
  {
    "model": "yfcases.township",
    "pk": 227,
    "fields": {
      "city": 17,
      "city_name": "臺南市",
      "name": "永康區",
      "zip_code": "710",
      "district_court": "臺南",
      "land_office": "永康",
      "finance_and_tax_bureau": "新化分局",
      "police_station": "",
      "irs": "新化稽徵所",
      "home_office": ""
    }
  },
  {
    "model": "yfcases.township",
    "pk": 228,
    "fields": {
      "city": 17,
      "city_name": "臺南市",
      "name": "歸仁區",
      "zip_code": "711",
      "district_court": "臺南",
      "land_office": "歸仁",
      "finance_and_tax_bureau": "新化分局",
      "police_station": "",
      "irs": "新化稽徵所",
      "home_office": ""
    }
  },
  {
    "model": "yfcases.township",
    "pk": 229,
    "fields": {
      "city": 17,
      "city_name": "臺南市",
      "name": "新化區",
      "zip_code": "712",
      "district_court": "臺南",
      "land_office": "新化",
      "finance_and_tax_bureau": "新化分局",
      "police_station": "",
      "irs": "新化稽徵所",
      "home_office": ""
    }
  },
  {
    "model": "yfcases.township",
    "pk": 230,
    "fields": {
      "city": 17,
      "city_name": "臺南市",
      "name": "左鎮區",
      "zip_code": "713",
      "district_court": "臺南",
      "land_office": "新化",
      "finance_and_tax_bureau": "新化分局",
      "police_station": "",
      "irs": "新化稽徵所",
      "home_office": ""
    }
  },
  {
    "model": "yfcases.township",
    "pk": 231,
    "fields": {
      "city": 17,
      "city_name": "臺南市",
      "name": "玉井區",
      "zip_code": "714",
      "district_court": "臺南",
      "land_office": "玉井",
      "finance_and_tax_bureau": "新化分局",
      "police_station": "",
      "irs": "新化稽徵所",
      "home_office": ""
    }
  },
  {
    "model": "yfcases.township",
    "pk": 232,
    "fields": {
      "city": 17,
      "city_name": "臺南市",
      "name": "楠西區",
      "zip_code": "715",
      "district_court": "臺南",
      "land_office": "玉井",
      "finance_and_tax_bureau": "新化分局",
      "police_station": "",
      "irs": "新化稽徵所",
      "home_office": ""
    }
  },
  {
    "model": "yfcases.township",
    "pk": 233,
    "fields": {
      "city": 17,
      "city_name": "臺南市",
      "name": "南化區",
      "zip_code": "716",
      "district_court": "臺南",
      "land_office": "玉井",
      "finance_and_tax_bureau": "新化分局",
      "police_station": "",
      "irs": "新化稽徵所",
      "home_office": ""
    }
  },
  {
    "model": "yfcases.township",
    "pk": 234,
    "fields": {
      "city": 17,
      "city_name": "臺南市",
      "name": "仁德區",
      "zip_code": "717",
      "district_court": "臺南",
      "land_office": "歸仁",
      "finance_and_tax_bureau": "新化分局",
      "police_station": "",
      "irs": "新化稽徵所",
      "home_office": ""
    }
  },
  {
    "model": "yfcases.township",
    "pk": 235,
    "fields": {
      "city": 17,
      "city_name": "臺南市",
      "name": "關廟區",
      "zip_code": "718",
      "district_court": "臺南",
      "land_office": "歸仁",
      "finance_and_tax_bureau": "新化分局",
      "police_station": "",
      "irs": "新化稽徵所",
      "home_office": ""
    }
  },
  {
    "model": "yfcases.township",
    "pk": 236,
    "fields": {
      "city": 17,
      "city_name": "臺南市",
      "name": "龍崎區",
      "zip_code": "719",
      "district_court": "臺南",
      "land_office": "歸仁",
      "finance_and_tax_bureau": "新化分局",
      "police_station": "",
      "irs": "新化稽徵所",
      "home_office": ""
    }
  },
  {
    "model": "yfcases.township",
    "pk": 237,
    "fields": {
      "city": 17,
      "city_name": "臺南市",
      "name": "官田區",
      "zip_code": "720",
      "district_court": "臺南",
      "land_office": "麻豆",
      "finance_and_tax_bureau": "新化分局",
      "police_station": "",
      "irs": "新化稽徵所",
      "home_office": ""
    }
  },
  {
    "model": "yfcases.township",
    "pk": 238,
    "fields": {
      "city": 17,
      "city_name": "臺南市",
      "name": "麻豆區",
      "zip_code": "721",
      "district_court": "臺南",
      "land_office": "麻豆",
      "finance_and_tax_bureau": "佳里分局",
      "police_station": "",
      "irs": "佳里稽徵所",
      "home_office": ""
    }
  },
  {
    "model": "yfcases.township",
    "pk": 239,
    "fields": {
      "city": 17,
      "city_name": "臺南市",
      "name": "佳里區",
      "zip_code": "722",
      "district_court": "臺南",
      "land_office": "佳里",
      "finance_and_tax_bureau": "佳里分局",
      "police_station": "",
      "irs": "佳里稽徵所",
      "home_office": ""
    }
  },
  {
    "model": "yfcases.township",
    "pk": 240,
    "fields": {
      "city": 17,
      "city_name": "臺南市",
      "name": "西港區",
      "zip_code": "723",
      "district_court": "臺南",
      "land_office": "佳里",
      "finance_and_tax_bureau": "佳里分局",
      "police_station": "",
      "irs": "佳里稽徵所",
      "home_office": ""
    }
  },
  {
    "model": "yfcases.township",
    "pk": 241,
    "fields": {
      "city": 17,
      "city_name": "臺南市",
      "name": "七股區",
      "zip_code": "724",
      "district_court": "",
      "land_office": "",
      "finance_and_tax_bureau": "",
      "police_station": "",
      "irs": "",
      "home_office": ""
    }
  },
  {
    "model": "yfcases.township",
    "pk": 242,
    "fields": {
      "city": 17,
      "city_name": "臺南市",
      "name": "將軍區",
      "zip_code": "725",
      "district_court": "臺南",
      "land_office": "佳里",
      "finance_and_tax_bureau": "佳里分局",
      "police_station": "",
      "irs": "佳里稽徵所",
      "home_office": ""
    }
  },
  {
    "model": "yfcases.township",
    "pk": 243,
    "fields": {
      "city": 17,
      "city_name": "臺南市",
      "name": "學甲區",
      "zip_code": "726",
      "district_court": "臺南",
      "land_office": "佳里",
      "finance_and_tax_bureau": "佳里分局",
      "police_station": "",
      "irs": "佳里稽徵所",
      "home_office": ""
    }
  },
  {
    "model": "yfcases.township",
    "pk": 244,
    "fields": {
      "city": 17,
      "city_name": "臺南市",
      "name": "北門區",
      "zip_code": "727",
      "district_court": "臺南",
      "land_office": "佳里",
      "finance_and_tax_bureau": "佳里分局",
      "police_station": "",
      "irs": "佳里稽徵所",
      "home_office": ""
    }
  },
  {
    "model": "yfcases.township",
    "pk": 245,
    "fields": {
      "city": 17,
      "city_name": "臺南市",
      "name": "新營區",
      "zip_code": "730",
      "district_court": "臺南",
      "land_office": "鹽水",
      "finance_and_tax_bureau": "新營分局",
      "police_station": "",
      "irs": "新營分局",
      "home_office": ""
    }
  },
  {
    "model": "yfcases.township",
    "pk": 246,
    "fields": {
      "city": 17,
      "city_name": "臺南市",
      "name": "後壁區",
      "zip_code": "731",
      "district_court": "臺南",
      "land_office": "白河",
      "finance_and_tax_bureau": "新營分局",
      "police_station": "",
      "irs": "新營分局",
      "home_office": ""
    }
  },
  {
    "model": "yfcases.township",
    "pk": 247,
    "fields": {
      "city": 17,
      "city_name": "臺南市",
      "name": "白河區",
      "zip_code": "732",
      "district_court": "臺南",
      "land_office": "白河",
      "finance_and_tax_bureau": "新營分局",
      "police_station": "",
      "irs": "新營分局",
      "home_office": ""
    }
  },
  {
    "model": "yfcases.township",
    "pk": 248,
    "fields": {
      "city": 17,
      "city_name": "臺南市",
      "name": "東山區",
      "zip_code": "733",
      "district_court": "臺南",
      "land_office": "白河",
      "finance_and_tax_bureau": "新營分局",
      "police_station": "",
      "irs": "新營分局",
      "home_office": ""
    }
  },
  {
    "model": "yfcases.township",
    "pk": 249,
    "fields": {
      "city": 17,
      "city_name": "臺南市",
      "name": "六甲區",
      "zip_code": "734",
      "district_court": "臺南",
      "land_office": "麻豆",
      "finance_and_tax_bureau": "新營分局",
      "police_station": "",
      "irs": "新營分局",
      "home_office": ""
    }
  },
  {
    "model": "yfcases.township",
    "pk": 250,
    "fields": {
      "city": 17,
      "city_name": "臺南市",
      "name": "下營區",
      "zip_code": "735",
      "district_court": "臺南",
      "land_office": "麻豆",
      "finance_and_tax_bureau": "新營分局",
      "police_station": "",
      "irs": "新營分局",
      "home_office": ""
    }
  },
  {
    "model": "yfcases.township",
    "pk": 251,
    "fields": {
      "city": 17,
      "city_name": "臺南市",
      "name": "柳營區",
      "zip_code": "736",
      "district_court": "臺南",
      "land_office": "鹽水",
      "finance_and_tax_bureau": "新營分局",
      "police_station": "",
      "irs": "新營分局",
      "home_office": ""
    }
  },
  {
    "model": "yfcases.township",
    "pk": 252,
    "fields": {
      "city": 17,
      "city_name": "臺南市",
      "name": "鹽水區",
      "zip_code": "737",
      "district_court": "臺南",
      "land_office": "鹽水",
      "finance_and_tax_bureau": "新營分局",
      "police_station": "",
      "irs": "新營分局",
      "home_office": ""
    }
  },
  {
    "model": "yfcases.township",
    "pk": 253,
    "fields": {
      "city": 17,
      "city_name": "臺南市",
      "name": "善化區",
      "zip_code": "741",
      "district_court": "臺南",
      "land_office": "新化",
      "finance_and_tax_bureau": "新營分局",
      "police_station": "",
      "irs": "新營分局",
      "home_office": ""
    }
  },
  {
    "model": "yfcases.township",
    "pk": 254,
    "fields": {
      "city": 17,
      "city_name": "臺南市",
      "name": "大內區",
      "zip_code": "742",
      "district_court": "臺南",
      "land_office": "麻豆",
      "finance_and_tax_bureau": "新營分局",
      "police_station": "",
      "irs": "新營分局",
      "home_office": ""
    }
  },
  {
    "model": "yfcases.township",
    "pk": 255,
    "fields": {
      "city": 17,
      "city_name": "臺南市",
      "name": "山上區",
      "zip_code": "743",
      "district_court": "臺南",
      "land_office": "新化",
      "finance_and_tax_bureau": "新化分局",
      "police_station": "",
      "irs": "新化稽徵所",
      "home_office": ""
    }
  },
  {
    "model": "yfcases.township",
    "pk": 256,
    "fields": {
      "city": 17,
      "city_name": "臺南市",
      "name": "新市區",
      "zip_code": "741",
      "district_court": "臺南",
      "land_office": "新化",
      "finance_and_tax_bureau": "新化分局",
      "police_station": "",
      "irs": "新化稽徵所",
      "home_office": ""
    }
  },
  {
    "model": "yfcases.township",
    "pk": 257,
    "fields": {
      "city": 17,
      "city_name": "臺南市",
      "name": "安定區",
      "zip_code": "745",
      "district_court": "臺南",
      "land_office": "新化",
      "finance_and_tax_bureau": "佳里分局",
      "police_station": "",
      "irs": "佳里稽徵所",
      "home_office": ""
    }
  },
  {
    "model": "yfcases.township",
    "pk": 258,
    "fields": {
      "city": 18,
      "city_name": "高雄市",
      "name": "新興區",
      "zip_code": "800",
      "district_court": "高雄",
      "land_office": "新興",
      "finance_and_tax_bureau": "新興分處",
      "police_station": "",
      "irs": "",
      "home_office": ""
    }
  },
  {
    "model": "yfcases.township",
    "pk": 259,
    "fields": {
      "city": 18,
      "city_name": "高雄市",
      "name": "前金區",
      "zip_code": "801",
      "district_court": "高雄",
      "land_office": "鹽埕",
      "finance_and_tax_bureau": "鹽埕分處",
      "police_station": "",
      "irs": "",
      "home_office": ""
    }
  },
  {
    "model": "yfcases.township",
    "pk": 260,
    "fields": {
      "city": 18,
      "city_name": "高雄市",
      "name": "苓雅區",
      "zip_code": "802",
      "district_court": "高雄",
      "land_office": "新興",
      "finance_and_tax_bureau": "新興分處",
      "police_station": "",
      "irs": "",
      "home_office": ""
    }
  },
  {
    "model": "yfcases.township",
    "pk": 261,
    "fields": {
      "city": 18,
      "city_name": "高雄市",
      "name": "鹽埕區",
      "zip_code": "803",
      "district_court": "高雄",
      "land_office": "鹽埕",
      "finance_and_tax_bureau": "鹽埕分處",
      "police_station": "",
      "irs": "",
      "home_office": ""
    }
  },
  {
    "model": "yfcases.township",
    "pk": 262,
    "fields": {
      "city": 18,
      "city_name": "高雄市",
      "name": "鼓山區",
      "zip_code": "804",
      "district_court": "高雄",
      "land_office": "鹽埕",
      "finance_and_tax_bureau": "鹽埕分處",
      "police_station": "",
      "irs": "",
      "home_office": ""
    }
  },
  {
    "model": "yfcases.township",
    "pk": 263,
    "fields": {
      "city": 18,
      "city_name": "高雄市",
      "name": "旗津區",
      "zip_code": "805",
      "district_court": "高雄",
      "land_office": "鹽埕",
      "finance_and_tax_bureau": "鹽埕分處",
      "police_station": "",
      "irs": "",
      "home_office": ""
    }
  },
  {
    "model": "yfcases.township",
    "pk": 264,
    "fields": {
      "city": 18,
      "city_name": "高雄市",
      "name": "前鎮區",
      "zip_code": "806",
      "district_court": "高雄",
      "land_office": "前鎮",
      "finance_and_tax_bureau": "前鎮",
      "police_station": "",
      "irs": "",
      "home_office": ""
    }
  },
  {
    "model": "yfcases.township",
    "pk": 265,
    "fields": {
      "city": 18,
      "city_name": "高雄市",
      "name": "三民區",
      "zip_code": "807",
      "district_court": "高雄",
      "land_office": "三民",
      "finance_and_tax_bureau": "三民",
      "police_station": "",
      "irs": "",
      "home_office": ""
    }
  },
  {
    "model": "yfcases.township",
    "pk": 266,
    "fields": {
      "city": 18,
      "city_name": "高雄市",
      "name": "楠梓區",
      "zip_code": "811",
      "district_court": "橋頭",
      "land_office": "楠梓",
      "finance_and_tax_bureau": "楠梓",
      "police_station": "",
      "irs": "",
      "home_office": ""
    }
  },
  {
    "model": "yfcases.township",
    "pk": 267,
    "fields": {
      "city": 18,
      "city_name": "高雄市",
      "name": "小港區",
      "zip_code": "812",
      "district_court": "高雄",
      "land_office": "前鎮",
      "finance_and_tax_bureau": "前鎮",
      "police_station": "",
      "irs": "",
      "home_office": ""
    }
  },
  {
    "model": "yfcases.township",
    "pk": 268,
    "fields": {
      "city": 18,
      "city_name": "高雄市",
      "name": "左營區",
      "zip_code": "813",
      "district_court": "橋頭",
      "land_office": "楠梓",
      "finance_and_tax_bureau": "左營分處",
      "police_station": "",
      "irs": "",
      "home_office": ""
    }
  },
  {
    "model": "yfcases.township",
    "pk": 269,
    "fields": {
      "city": 18,
      "city_name": "高雄市",
      "name": "仁武區",
      "zip_code": "814",
      "district_court": "橋頭",
      "land_office": "仁武",
      "finance_and_tax_bureau": "仁武",
      "police_station": "",
      "irs": "",
      "home_office": ""
    }
  },
  {
    "model": "yfcases.township",
    "pk": 270,
    "fields": {
      "city": 18,
      "city_name": "高雄市",
      "name": "大社區",
      "zip_code": "815",
      "district_court": "橋頭",
      "land_office": "仁武",
      "finance_and_tax_bureau": "仁武",
      "police_station": "",
      "irs": "",
      "home_office": ""
    }
  },
  {
    "model": "yfcases.township",
    "pk": 271,
    "fields": {
      "city": 18,
      "city_name": "高雄市",
      "name": "岡山區",
      "zip_code": "820",
      "district_court": "橋頭",
      "land_office": "岡山",
      "finance_and_tax_bureau": "岡山分處",
      "police_station": "",
      "irs": "",
      "home_office": ""
    }
  },
  {
    "model": "yfcases.township",
    "pk": 272,
    "fields": {
      "city": 18,
      "city_name": "高雄市",
      "name": "路竹區",
      "zip_code": "821",
      "district_court": "橋頭",
      "land_office": "路竹",
      "finance_and_tax_bureau": "岡山分處",
      "police_station": "",
      "irs": "",
      "home_office": ""
    }
  },
  {
    "model": "yfcases.township",
    "pk": 273,
    "fields": {
      "city": 18,
      "city_name": "高雄市",
      "name": "阿蓮區",
      "zip_code": "822",
      "district_court": "橋頭",
      "land_office": "路竹",
      "finance_and_tax_bureau": "岡山分處",
      "police_station": "",
      "irs": "",
      "home_office": ""
    }
  },
  {
    "model": "yfcases.township",
    "pk": 274,
    "fields": {
      "city": 18,
      "city_name": "高雄市",
      "name": "田寮區",
      "zip_code": "823",
      "district_court": "橋頭",
      "land_office": "路竹",
      "finance_and_tax_bureau": "岡山分處",
      "police_station": "",
      "irs": "",
      "home_office": ""
    }
  },
  {
    "model": "yfcases.township",
    "pk": 275,
    "fields": {
      "city": 18,
      "city_name": "高雄市",
      "name": "燕巢區",
      "zip_code": "824",
      "district_court": "橋頭",
      "land_office": "岡山",
      "finance_and_tax_bureau": "岡山分處",
      "police_station": "",
      "irs": "",
      "home_office": ""
    }
  },
  {
    "model": "yfcases.township",
    "pk": 276,
    "fields": {
      "city": 18,
      "city_name": "高雄市",
      "name": "橋頭區",
      "zip_code": "825",
      "district_court": "橋頭",
      "land_office": "岡山",
      "finance_and_tax_bureau": "岡山分處",
      "police_station": "",
      "irs": "",
      "home_office": ""
    }
  },
  {
    "model": "yfcases.township",
    "pk": 277,
    "fields": {
      "city": 18,
      "city_name": "高雄市",
      "name": "梓官區",
      "zip_code": "826",
      "district_court": "橋頭",
      "land_office": "岡山",
      "finance_and_tax_bureau": "岡山分處",
      "police_station": "",
      "irs": "",
      "home_office": ""
    }
  },
  {
    "model": "yfcases.township",
    "pk": 278,
    "fields": {
      "city": 18,
      "city_name": "高雄市",
      "name": "彌陀區",
      "zip_code": "827",
      "district_court": "橋頭",
      "land_office": "岡山",
      "finance_and_tax_bureau": "岡山分處",
      "police_station": "",
      "irs": "",
      "home_office": ""
    }
  },
  {
    "model": "yfcases.township",
    "pk": 279,
    "fields": {
      "city": 18,
      "city_name": "高雄市",
      "name": "永安區",
      "zip_code": "828",
      "district_court": "橋頭",
      "land_office": "岡山",
      "finance_and_tax_bureau": "岡山分處",
      "police_station": "",
      "irs": "",
      "home_office": ""
    }
  },
  {
    "model": "yfcases.township",
    "pk": 280,
    "fields": {
      "city": 18,
      "city_name": "高雄市",
      "name": "湖內區",
      "zip_code": "829",
      "district_court": "橋頭",
      "land_office": "路竹",
      "finance_and_tax_bureau": "岡山分處",
      "police_station": "",
      "irs": "",
      "home_office": ""
    }
  },
  {
    "model": "yfcases.township",
    "pk": 281,
    "fields": {
      "city": 18,
      "city_name": "高雄市",
      "name": "鳳山區",
      "zip_code": "830",
      "district_court": "高雄",
      "land_office": "鳳山",
      "finance_and_tax_bureau": "鳳山分處",
      "police_station": "",
      "irs": "",
      "home_office": ""
    }
  },
  {
    "model": "yfcases.township",
    "pk": 282,
    "fields": {
      "city": 18,
      "city_name": "高雄市",
      "name": "大寮區",
      "zip_code": "831",
      "district_court": "高雄",
      "land_office": "大寮",
      "finance_and_tax_bureau": "大寮",
      "police_station": "",
      "irs": "",
      "home_office": ""
    }
  },
  {
    "model": "yfcases.township",
    "pk": 283,
    "fields": {
      "city": 18,
      "city_name": "高雄市",
      "name": "林園區",
      "zip_code": "832",
      "district_court": "高雄",
      "land_office": "大寮",
      "finance_and_tax_bureau": "大寮",
      "police_station": "",
      "irs": "",
      "home_office": ""
    }
  },
  {
    "model": "yfcases.township",
    "pk": 284,
    "fields": {
      "city": 18,
      "city_name": "高雄市",
      "name": "鳥松區",
      "zip_code": "833",
      "district_court": "橋頭",
      "land_office": "仁武",
      "finance_and_tax_bureau": "仁武",
      "police_station": "",
      "irs": "",
      "home_office": ""
    }
  },
  {
    "model": "yfcases.township",
    "pk": 285,
    "fields": {
      "city": 18,
      "city_name": "高雄市",
      "name": "大樹區",
      "zip_code": "840",
      "district_court": "橋頭",
      "land_office": "鳳山",
      "finance_and_tax_bureau": "仁武",
      "police_station": "",
      "irs": "",
      "home_office": ""
    }
  },
  {
    "model": "yfcases.township",
    "pk": 286,
    "fields": {
      "city": 18,
      "city_name": "高雄市",
      "name": "旗山區",
      "zip_code": "842",
      "district_court": "橋頭",
      "land_office": "旗山",
      "finance_and_tax_bureau": "旗山分處",
      "police_station": "",
      "irs": "",
      "home_office": ""
    }
  },
  {
    "model": "yfcases.township",
    "pk": 287,
    "fields": {
      "city": 18,
      "city_name": "高雄市",
      "name": "美濃區",
      "zip_code": "843",
      "district_court": "橋頭",
      "land_office": "美濃",
      "finance_and_tax_bureau": "旗山分處",
      "police_station": "",
      "irs": "",
      "home_office": ""
    }
  },
  {
    "model": "yfcases.township",
    "pk": 288,
    "fields": {
      "city": 18,
      "city_name": "高雄市",
      "name": "六龜區",
      "zip_code": "844",
      "district_court": "橋頭",
      "land_office": "美濃",
      "finance_and_tax_bureau": "旗山分處",
      "police_station": "",
      "irs": "",
      "home_office": ""
    }
  },
  {
    "model": "yfcases.township",
    "pk": 289,
    "fields": {
      "city": 18,
      "city_name": "高雄市",
      "name": "內門區",
      "zip_code": "845",
      "district_court": "橋頭",
      "land_office": "旗山",
      "finance_and_tax_bureau": "旗山分處",
      "police_station": "",
      "irs": "",
      "home_office": ""
    }
  },
  {
    "model": "yfcases.township",
    "pk": 290,
    "fields": {
      "city": 18,
      "city_name": "高雄市",
      "name": "杉林區",
      "zip_code": "846",
      "district_court": "橋頭",
      "land_office": "旗山",
      "finance_and_tax_bureau": "旗山分處",
      "police_station": "",
      "irs": "",
      "home_office": ""
    }
  },
  {
    "model": "yfcases.township",
    "pk": 291,
    "fields": {
      "city": 18,
      "city_name": "高雄市",
      "name": "甲仙區",
      "zip_code": "847",
      "district_court": "橋頭",
      "land_office": "旗山",
      "finance_and_tax_bureau": "旗山分處",
      "police_station": "",
      "irs": "",
      "home_office": ""
    }
  },
  {
    "model": "yfcases.township",
    "pk": 292,
    "fields": {
      "city": 18,
      "city_name": "高雄市",
      "name": "桃源區",
      "zip_code": "848",
      "district_court": "橋頭",
      "land_office": "美濃",
      "finance_and_tax_bureau": "旗山分處",
      "police_station": "",
      "irs": "",
      "home_office": ""
    }
  },
  {
    "model": "yfcases.township",
    "pk": 293,
    "fields": {
      "city": 18,
      "city_name": "高雄市",
      "name": "那瑪夏區",
      "zip_code": "849",
      "district_court": "橋頭",
      "land_office": "旗山",
      "finance_and_tax_bureau": "旗山分處",
      "police_station": "",
      "irs": "",
      "home_office": ""
    }
  },
  {
    "model": "yfcases.township",
    "pk": 294,
    "fields": {
      "city": 18,
      "city_name": "高雄市",
      "name": "茂林區",
      "zip_code": "851",
      "district_court": "橋頭",
      "land_office": "美濃",
      "finance_and_tax_bureau": "旗山分處",
      "police_station": "",
      "irs": "",
      "home_office": ""
    }
  },
  {
    "model": "yfcases.township",
    "pk": 295,
    "fields": {
      "city": 18,
      "city_name": "高雄市",
      "name": "茄萣區",
      "zip_code": "852",
      "district_court": "橋頭",
      "land_office": "路竹",
      "finance_and_tax_bureau": "岡山分處",
      "police_station": "",
      "irs": "",
      "home_office": ""
    }
  },
  {
    "model": "yfcases.township",
    "pk": 296,
    "fields": {
      "city": 18,
      "city_name": "高雄市",
      "name": "東沙群島",
      "zip_code": "817",
      "district_court": "",
      "land_office": "",
      "finance_and_tax_bureau": "",
      "police_station": "",
      "irs": "",
      "home_office": ""
    }
  },
  {
    "model": "yfcases.township",
    "pk": 297,
    "fields": {
      "city": 18,
      "city_name": "高雄市",
      "name": "南沙群島",
      "zip_code": "819",
      "district_court": "",
      "land_office": "",
      "finance_and_tax_bureau": "",
      "police_station": "",
      "irs": "",
      "home_office": ""
    }
  },
  {
    "model": "yfcases.township",
    "pk": 298,
    "fields": {
      "city": 20,
      "city_name": "澎湖縣",
      "name": "馬公市",
      "zip_code": "880",
      "district_court": "",
      "land_office": "",
      "finance_and_tax_bureau": "",
      "police_station": "",
      "irs": "",
      "home_office": ""
    }
  },
  {
    "model": "yfcases.township",
    "pk": 299,
    "fields": {
      "city": 20,
      "city_name": "澎湖縣",
      "name": "西嶼鄉",
      "zip_code": "881",
      "district_court": "",
      "land_office": "",
      "finance_and_tax_bureau": "",
      "police_station": "",
      "irs": "",
      "home_office": ""
    }
  },
  {
    "model": "yfcases.township",
    "pk": 300,
    "fields": {
      "city": 20,
      "city_name": "澎湖縣",
      "name": "望安鄉",
      "zip_code": "882",
      "district_court": "",
      "land_office": "",
      "finance_and_tax_bureau": "",
      "police_station": "",
      "irs": "",
      "home_office": ""
    }
  },
  {
    "model": "yfcases.township",
    "pk": 301,
    "fields": {
      "city": 20,
      "city_name": "澎湖縣",
      "name": "七美鄉",
      "zip_code": "883",
      "district_court": "",
      "land_office": "",
      "finance_and_tax_bureau": "",
      "police_station": "",
      "irs": "",
      "home_office": ""
    }
  },
  {
    "model": "yfcases.township",
    "pk": 302,
    "fields": {
      "city": 20,
      "city_name": "澎湖縣",
      "name": "白沙鄉",
      "zip_code": "884",
      "district_court": "",
      "land_office": "",
      "finance_and_tax_bureau": "",
      "police_station": "",
      "irs": "",
      "home_office": ""
    }
  },
  {
    "model": "yfcases.township",
    "pk": 303,
    "fields": {
      "city": 20,
      "city_name": "澎湖縣",
      "name": "湖西鄉",
      "zip_code": "885",
      "district_court": "",
      "land_office": "",
      "finance_and_tax_bureau": "",
      "police_station": "",
      "irs": "",
      "home_office": ""
    }
  },
  {
    "model": "yfcases.township",
    "pk": 304,
    "fields": {
      "city": 21,
      "city_name": "金門縣",
      "name": "金沙鎮",
      "zip_code": "890",
      "district_court": "",
      "land_office": "",
      "finance_and_tax_bureau": "",
      "police_station": "",
      "irs": "",
      "home_office": ""
    }
  },
  {
    "model": "yfcases.township",
    "pk": 305,
    "fields": {
      "city": 21,
      "city_name": "金門縣",
      "name": "金湖鎮",
      "zip_code": "891",
      "district_court": "",
      "land_office": "",
      "finance_and_tax_bureau": "",
      "police_station": "",
      "irs": "",
      "home_office": ""
    }
  },
  {
    "model": "yfcases.township",
    "pk": 306,
    "fields": {
      "city": 21,
      "city_name": "金門縣",
      "name": "金寧鄉",
      "zip_code": "892",
      "district_court": "",
      "land_office": "",
      "finance_and_tax_bureau": "",
      "police_station": "",
      "irs": "",
      "home_office": ""
    }
  },
  {
    "model": "yfcases.township",
    "pk": 307,
    "fields": {
      "city": 21,
      "city_name": "金門縣",
      "name": "金城鎮",
      "zip_code": "893",
      "district_court": "",
      "land_office": "",
      "finance_and_tax_bureau": "",
      "police_station": "",
      "irs": "",
      "home_office": ""
    }
  },
  {
    "model": "yfcases.township",
    "pk": 308,
    "fields": {
      "city": 21,
      "city_name": "金門縣",
      "name": "烈嶼鄉",
      "zip_code": "894",
      "district_court": "",
      "land_office": "",
      "finance_and_tax_bureau": "",
      "police_station": "",
      "irs": "",
      "home_office": ""
    }
  },
  {
    "model": "yfcases.township",
    "pk": 309,
    "fields": {
      "city": 21,
      "city_name": "金門縣",
      "name": "烏坵鄉",
      "zip_code": "896",
      "district_court": "",
      "land_office": "",
      "finance_and_tax_bureau": "",
      "police_station": "",
      "irs": "",
      "home_office": ""
    }
  },
  {
    "model": "yfcases.township",
    "pk": 310,
    "fields": {
      "city": 22,
      "city_name": "屏東縣",
      "name": "屏東市",
      "zip_code": "900",
      "district_court": "",
      "land_office": "",
      "finance_and_tax_bureau": "",
      "police_station": "",
      "irs": "",
      "home_office": ""
    }
  },
  {
    "model": "yfcases.township",
    "pk": 311,
    "fields": {
      "city": 22,
      "city_name": "屏東縣",
      "name": "三地門鄉",
      "zip_code": "901",
      "district_court": "",
      "land_office": "",
      "finance_and_tax_bureau": "",
      "police_station": "",
      "irs": "",
      "home_office": ""
    }
  },
  {
    "model": "yfcases.township",
    "pk": 312,
    "fields": {
      "city": 22,
      "city_name": "屏東縣",
      "name": "霧臺鄉",
      "zip_code": "902",
      "district_court": "",
      "land_office": "",
      "finance_and_tax_bureau": "",
      "police_station": "",
      "irs": "",
      "home_office": ""
    }
  },
  {
    "model": "yfcases.township",
    "pk": 313,
    "fields": {
      "city": 22,
      "city_name": "屏東縣",
      "name": "瑪家鄉",
      "zip_code": "903",
      "district_court": "",
      "land_office": "",
      "finance_and_tax_bureau": "",
      "police_station": "",
      "irs": "",
      "home_office": ""
    }
  },
  {
    "model": "yfcases.township",
    "pk": 314,
    "fields": {
      "city": 22,
      "city_name": "屏東縣",
      "name": "九如鄉",
      "zip_code": "904",
      "district_court": "",
      "land_office": "",
      "finance_and_tax_bureau": "",
      "police_station": "",
      "irs": "",
      "home_office": ""
    }
  },
  {
    "model": "yfcases.township",
    "pk": 315,
    "fields": {
      "city": 22,
      "city_name": "屏東縣",
      "name": "里港鄉",
      "zip_code": "905",
      "district_court": "",
      "land_office": "",
      "finance_and_tax_bureau": "",
      "police_station": "",
      "irs": "",
      "home_office": ""
    }
  },
  {
    "model": "yfcases.township",
    "pk": 316,
    "fields": {
      "city": 22,
      "city_name": "屏東縣",
      "name": "高樹鄉",
      "zip_code": "906",
      "district_court": "",
      "land_office": "",
      "finance_and_tax_bureau": "",
      "police_station": "",
      "irs": "",
      "home_office": ""
    }
  },
  {
    "model": "yfcases.township",
    "pk": 317,
    "fields": {
      "city": 22,
      "city_name": "屏東縣",
      "name": "鹽埔鄉",
      "zip_code": "907",
      "district_court": "",
      "land_office": "",
      "finance_and_tax_bureau": "",
      "police_station": "",
      "irs": "",
      "home_office": ""
    }
  },
  {
    "model": "yfcases.township",
    "pk": 318,
    "fields": {
      "city": 22,
      "city_name": "屏東縣",
      "name": "長治鄉",
      "zip_code": "908",
      "district_court": "",
      "land_office": "",
      "finance_and_tax_bureau": "",
      "police_station": "",
      "irs": "",
      "home_office": ""
    }
  },
  {
    "model": "yfcases.township",
    "pk": 319,
    "fields": {
      "city": 22,
      "city_name": "屏東縣",
      "name": "麟洛鄉",
      "zip_code": "909",
      "district_court": "",
      "land_office": "",
      "finance_and_tax_bureau": "",
      "police_station": "",
      "irs": "",
      "home_office": ""
    }
  },
  {
    "model": "yfcases.township",
    "pk": 320,
    "fields": {
      "city": 22,
      "city_name": "屏東縣",
      "name": "竹田鄉",
      "zip_code": "911",
      "district_court": "",
      "land_office": "",
      "finance_and_tax_bureau": "",
      "police_station": "",
      "irs": "",
      "home_office": ""
    }
  },
  {
    "model": "yfcases.township",
    "pk": 321,
    "fields": {
      "city": 22,
      "city_name": "屏東縣",
      "name": "內埔鄉",
      "zip_code": "912",
      "district_court": "",
      "land_office": "",
      "finance_and_tax_bureau": "",
      "police_station": "",
      "irs": "",
      "home_office": ""
    }
  },
  {
    "model": "yfcases.township",
    "pk": 322,
    "fields": {
      "city": 22,
      "city_name": "屏東縣",
      "name": "萬丹鄉",
      "zip_code": "913",
      "district_court": "",
      "land_office": "",
      "finance_and_tax_bureau": "",
      "police_station": "",
      "irs": "",
      "home_office": ""
    }
  },
  {
    "model": "yfcases.township",
    "pk": 323,
    "fields": {
      "city": 22,
      "city_name": "屏東縣",
      "name": "潮州鎮",
      "zip_code": "920",
      "district_court": "",
      "land_office": "",
      "finance_and_tax_bureau": "",
      "police_station": "",
      "irs": "",
      "home_office": ""
    }
  },
  {
    "model": "yfcases.township",
    "pk": 324,
    "fields": {
      "city": 22,
      "city_name": "屏東縣",
      "name": "泰武鄉",
      "zip_code": "921",
      "district_court": "",
      "land_office": "",
      "finance_and_tax_bureau": "",
      "police_station": "",
      "irs": "",
      "home_office": ""
    }
  },
  {
    "model": "yfcases.township",
    "pk": 325,
    "fields": {
      "city": 22,
      "city_name": "屏東縣",
      "name": "來義鄉",
      "zip_code": "922",
      "district_court": "",
      "land_office": "",
      "finance_and_tax_bureau": "",
      "police_station": "",
      "irs": "",
      "home_office": ""
    }
  },
  {
    "model": "yfcases.township",
    "pk": 326,
    "fields": {
      "city": 22,
      "city_name": "屏東縣",
      "name": "萬巒鄉",
      "zip_code": "923",
      "district_court": "",
      "land_office": "",
      "finance_and_tax_bureau": "",
      "police_station": "",
      "irs": "",
      "home_office": ""
    }
  },
  {
    "model": "yfcases.township",
    "pk": 327,
    "fields": {
      "city": 22,
      "city_name": "屏東縣",
      "name": "崁頂鄉",
      "zip_code": "924",
      "district_court": "",
      "land_office": "",
      "finance_and_tax_bureau": "",
      "police_station": "",
      "irs": "",
      "home_office": ""
    }
  },
  {
    "model": "yfcases.township",
    "pk": 328,
    "fields": {
      "city": 22,
      "city_name": "屏東縣",
      "name": "新埤鄉",
      "zip_code": "925",
      "district_court": "",
      "land_office": "",
      "finance_and_tax_bureau": "",
      "police_station": "",
      "irs": "",
      "home_office": ""
    }
  },
  {
    "model": "yfcases.township",
    "pk": 329,
    "fields": {
      "city": 22,
      "city_name": "屏東縣",
      "name": "南州鄉",
      "zip_code": "926",
      "district_court": "",
      "land_office": "",
      "finance_and_tax_bureau": "",
      "police_station": "",
      "irs": "",
      "home_office": ""
    }
  },
  {
    "model": "yfcases.township",
    "pk": 330,
    "fields": {
      "city": 22,
      "city_name": "屏東縣",
      "name": "林邊鄉",
      "zip_code": "927",
      "district_court": "",
      "land_office": "",
      "finance_and_tax_bureau": "",
      "police_station": "",
      "irs": "",
      "home_office": ""
    }
  },
  {
    "model": "yfcases.township",
    "pk": 331,
    "fields": {
      "city": 22,
      "city_name": "屏東縣",
      "name": "東港鎮",
      "zip_code": "928",
      "district_court": "",
      "land_office": "",
      "finance_and_tax_bureau": "",
      "police_station": "",
      "irs": "",
      "home_office": ""
    }
  },
  {
    "model": "yfcases.township",
    "pk": 332,
    "fields": {
      "city": 22,
      "city_name": "屏東縣",
      "name": "琉球鄉",
      "zip_code": "929",
      "district_court": "",
      "land_office": "",
      "finance_and_tax_bureau": "",
      "police_station": "",
      "irs": "",
      "home_office": ""
    }
  },
  {
    "model": "yfcases.township",
    "pk": 333,
    "fields": {
      "city": 22,
      "city_name": "屏東縣",
      "name": "佳冬鄉",
      "zip_code": "931",
      "district_court": "",
      "land_office": "",
      "finance_and_tax_bureau": "",
      "police_station": "",
      "irs": "",
      "home_office": ""
    }
  },
  {
    "model": "yfcases.township",
    "pk": 334,
    "fields": {
      "city": 22,
      "city_name": "屏東縣",
      "name": "新園鄉",
      "zip_code": "932",
      "district_court": "",
      "land_office": "",
      "finance_and_tax_bureau": "",
      "police_station": "",
      "irs": "",
      "home_office": ""
    }
  },
  {
    "model": "yfcases.township",
    "pk": 335,
    "fields": {
      "city": 22,
      "city_name": "屏東縣",
      "name": "枋寮鄉",
      "zip_code": "940",
      "district_court": "",
      "land_office": "",
      "finance_and_tax_bureau": "",
      "police_station": "",
      "irs": "",
      "home_office": ""
    }
  },
  {
    "model": "yfcases.township",
    "pk": 336,
    "fields": {
      "city": 22,
      "city_name": "屏東縣",
      "name": "枋山鄉",
      "zip_code": "941",
      "district_court": "",
      "land_office": "",
      "finance_and_tax_bureau": "",
      "police_station": "",
      "irs": "",
      "home_office": ""
    }
  },
  {
    "model": "yfcases.township",
    "pk": 337,
    "fields": {
      "city": 22,
      "city_name": "屏東縣",
      "name": "春日鄉",
      "zip_code": "942",
      "district_court": "",
      "land_office": "",
      "finance_and_tax_bureau": "",
      "police_station": "",
      "irs": "",
      "home_office": ""
    }
  },
  {
    "model": "yfcases.township",
    "pk": 338,
    "fields": {
      "city": 22,
      "city_name": "屏東縣",
      "name": "獅子鄉",
      "zip_code": "943",
      "district_court": "",
      "land_office": "",
      "finance_and_tax_bureau": "",
      "police_station": "",
      "irs": "",
      "home_office": ""
    }
  },
  {
    "model": "yfcases.township",
    "pk": 339,
    "fields": {
      "city": 22,
      "city_name": "屏東縣",
      "name": "車城鄉",
      "zip_code": "944",
      "district_court": "",
      "land_office": "",
      "finance_and_tax_bureau": "",
      "police_station": "",
      "irs": "",
      "home_office": ""
    }
  },
  {
    "model": "yfcases.township",
    "pk": 340,
    "fields": {
      "city": 22,
      "city_name": "屏東縣",
      "name": "牡丹鄉",
      "zip_code": "945",
      "district_court": "",
      "land_office": "",
      "finance_and_tax_bureau": "",
      "police_station": "",
      "irs": "",
      "home_office": ""
    }
  },
  {
    "model": "yfcases.township",
    "pk": 341,
    "fields": {
      "city": 22,
      "city_name": "屏東縣",
      "name": "恆春鎮",
      "zip_code": "946",
      "district_court": "",
      "land_office": "",
      "finance_and_tax_bureau": "",
      "police_station": "",
      "irs": "",
      "home_office": ""
    }
  },
  {
    "model": "yfcases.township",
    "pk": 342,
    "fields": {
      "city": 22,
      "city_name": "屏東縣",
      "name": "滿州鄉",
      "zip_code": "947",
      "district_court": "",
      "land_office": "",
      "finance_and_tax_bureau": "",
      "police_station": "",
      "irs": "",
      "home_office": ""
    }
  },
  {
    "model": "yfcases.township",
    "pk": 343,
    "fields": {
      "city": 23,
      "city_name": "臺東縣",
      "name": "臺東市",
      "zip_code": "950",
      "district_court": "",
      "land_office": "",
      "finance_and_tax_bureau": "",
      "police_station": "",
      "irs": "",
      "home_office": ""
    }
  },
  {
    "model": "yfcases.township",
    "pk": 344,
    "fields": {
      "city": 23,
      "city_name": "臺東縣",
      "name": "綠島鄉",
      "zip_code": "951",
      "district_court": "",
      "land_office": "",
      "finance_and_tax_bureau": "",
      "police_station": "",
      "irs": "",
      "home_office": ""
    }
  },
  {
    "model": "yfcases.township",
    "pk": 345,
    "fields": {
      "city": 23,
      "city_name": "臺東縣",
      "name": "蘭嶼鄉",
      "zip_code": "952",
      "district_court": "",
      "land_office": "",
      "finance_and_tax_bureau": "",
      "police_station": "",
      "irs": "",
      "home_office": ""
    }
  },
  {
    "model": "yfcases.township",
    "pk": 346,
    "fields": {
      "city": 23,
      "city_name": "臺東縣",
      "name": "延平鄉",
      "zip_code": "953",
      "district_court": "",
      "land_office": "",
      "finance_and_tax_bureau": "",
      "police_station": "",
      "irs": "",
      "home_office": ""
    }
  },
  {
    "model": "yfcases.township",
    "pk": 347,
    "fields": {
      "city": 23,
      "city_name": "臺東縣",
      "name": "卑南鄉",
      "zip_code": "954",
      "district_court": "",
      "land_office": "",
      "finance_and_tax_bureau": "",
      "police_station": "",
      "irs": "",
      "home_office": ""
    }
  },
  {
    "model": "yfcases.township",
    "pk": 348,
    "fields": {
      "city": 23,
      "city_name": "臺東縣",
      "name": "鹿野鄉",
      "zip_code": "955",
      "district_court": "",
      "land_office": "",
      "finance_and_tax_bureau": "",
      "police_station": "",
      "irs": "",
      "home_office": ""
    }
  },
  {
    "model": "yfcases.township",
    "pk": 349,
    "fields": {
      "city": 23,
      "city_name": "臺東縣",
      "name": "關山鎮",
      "zip_code": "956",
      "district_court": "",
      "land_office": "",
      "finance_and_tax_bureau": "",
      "police_station": "",
      "irs": "",
      "home_office": ""
    }
  },
  {
    "model": "yfcases.township",
    "pk": 350,
    "fields": {
      "city": 23,
      "city_name": "臺東縣",
      "name": "海端鄉",
      "zip_code": "957",
      "district_court": "",
      "land_office": "",
      "finance_and_tax_bureau": "",
      "police_station": "",
      "irs": "",
      "home_office": ""
    }
  },
  {
    "model": "yfcases.township",
    "pk": 351,
    "fields": {
      "city": 23,
      "city_name": "臺東縣",
      "name": "池上鄉",
      "zip_code": "958",
      "district_court": "",
      "land_office": "",
      "finance_and_tax_bureau": "",
      "police_station": "",
      "irs": "",
      "home_office": ""
    }
  },
  {
    "model": "yfcases.township",
    "pk": 352,
    "fields": {
      "city": 23,
      "city_name": "臺東縣",
      "name": "東河鄉",
      "zip_code": "959",
      "district_court": "",
      "land_office": "",
      "finance_and_tax_bureau": "",
      "police_station": "",
      "irs": "",
      "home_office": ""
    }
  },
  {
    "model": "yfcases.township",
    "pk": 353,
    "fields": {
      "city": 23,
      "city_name": "臺東縣",
      "name": "成功鎮",
      "zip_code": "961",
      "district_court": "",
      "land_office": "",
      "finance_and_tax_bureau": "",
      "police_station": "",
      "irs": "",
      "home_office": ""
    }
  },
  {
    "model": "yfcases.township",
    "pk": 354,
    "fields": {
      "city": 23,
      "city_name": "臺東縣",
      "name": "長濱鄉",
      "zip_code": "962",
      "district_court": "",
      "land_office": "",
      "finance_and_tax_bureau": "",
      "police_station": "",
      "irs": "",
      "home_office": ""
    }
  },
  {
    "model": "yfcases.township",
    "pk": 355,
    "fields": {
      "city": 23,
      "city_name": "臺東縣",
      "name": "太麻里鄉",
      "zip_code": "963",
      "district_court": "",
      "land_office": "",
      "finance_and_tax_bureau": "",
      "police_station": "",
      "irs": "",
      "home_office": ""
    }
  },
  {
    "model": "yfcases.township",
    "pk": 356,
    "fields": {
      "city": 23,
      "city_name": "臺東縣",
      "name": "金峰鄉",
      "zip_code": "964",
      "district_court": "",
      "land_office": "",
      "finance_and_tax_bureau": "",
      "police_station": "",
      "irs": "",
      "home_office": ""
    }
  },
  {
    "model": "yfcases.township",
    "pk": 357,
    "fields": {
      "city": 23,
      "city_name": "臺東縣",
      "name": "大武鄉",
      "zip_code": "965",
      "district_court": "",
      "land_office": "",
      "finance_and_tax_bureau": "",
      "police_station": "",
      "irs": "",
      "home_office": ""
    }
  },
  {
    "model": "yfcases.township",
    "pk": 358,
    "fields": {
      "city": 23,
      "city_name": "臺東縣",
      "name": "達仁鄉",
      "zip_code": "966",
      "district_court": "",
      "land_office": "",
      "finance_and_tax_bureau": "",
      "police_station": "",
      "irs": "",
      "home_office": ""
    }
  },
  {
    "model": "yfcases.township",
    "pk": 359,
    "fields": {
      "city": 24,
      "city_name": "花蓮縣",
      "name": "花蓮市",
      "zip_code": "970",
      "district_court": "",
      "land_office": "",
      "finance_and_tax_bureau": "",
      "police_station": "",
      "irs": "",
      "home_office": ""
    }
  },
  {
    "model": "yfcases.township",
    "pk": 360,
    "fields": {
      "city": 24,
      "city_name": "花蓮縣",
      "name": "新城鄉",
      "zip_code": "971",
      "district_court": "",
      "land_office": "",
      "finance_and_tax_bureau": "",
      "police_station": "",
      "irs": "",
      "home_office": ""
    }
  },
  {
    "model": "yfcases.township",
    "pk": 361,
    "fields": {
      "city": 24,
      "city_name": "花蓮縣",
      "name": "秀林鄉",
      "zip_code": "972",
      "district_court": "",
      "land_office": "",
      "finance_and_tax_bureau": "",
      "police_station": "",
      "irs": "",
      "home_office": ""
    }
  },
  {
    "model": "yfcases.township",
    "pk": 362,
    "fields": {
      "city": 24,
      "city_name": "花蓮縣",
      "name": "吉安鄉",
      "zip_code": "973",
      "district_court": "",
      "land_office": "",
      "finance_and_tax_bureau": "",
      "police_station": "",
      "irs": "",
      "home_office": ""
    }
  },
  {
    "model": "yfcases.township",
    "pk": 363,
    "fields": {
      "city": 24,
      "city_name": "花蓮縣",
      "name": "壽豐鄉",
      "zip_code": "974",
      "district_court": "",
      "land_office": "",
      "finance_and_tax_bureau": "",
      "police_station": "",
      "irs": "",
      "home_office": ""
    }
  },
  {
    "model": "yfcases.township",
    "pk": 364,
    "fields": {
      "city": 24,
      "city_name": "花蓮縣",
      "name": "鳳林鎮",
      "zip_code": "975",
      "district_court": "",
      "land_office": "",
      "finance_and_tax_bureau": "",
      "police_station": "",
      "irs": "",
      "home_office": ""
    }
  },
  {
    "model": "yfcases.township",
    "pk": 365,
    "fields": {
      "city": 24,
      "city_name": "花蓮縣",
      "name": "光復鄉",
      "zip_code": "976",
      "district_court": "",
      "land_office": "",
      "finance_and_tax_bureau": "",
      "police_station": "",
      "irs": "",
      "home_office": ""
    }
  },
  {
    "model": "yfcases.township",
    "pk": 366,
    "fields": {
      "city": 24,
      "city_name": "花蓮縣",
      "name": "豐濱鄉",
      "zip_code": "977",
      "district_court": "",
      "land_office": "",
      "finance_and_tax_bureau": "",
      "police_station": "",
      "irs": "",
      "home_office": ""
    }
  },
  {
    "model": "yfcases.township",
    "pk": 367,
    "fields": {
      "city": 24,
      "city_name": "花蓮縣",
      "name": "瑞穗鄉",
      "zip_code": "978",
      "district_court": "",
      "land_office": "",
      "finance_and_tax_bureau": "",
      "police_station": "",
      "irs": "",
      "home_office": ""
    }
  },
  {
    "model": "yfcases.township",
    "pk": 368,
    "fields": {
      "city": 24,
      "city_name": "花蓮縣",
      "name": "萬榮鄉",
      "zip_code": "979",
      "district_court": "",
      "land_office": "",
      "finance_and_tax_bureau": "",
      "police_station": "",
      "irs": "",
      "home_office": ""
    }
  },
  {
    "model": "yfcases.township",
    "pk": 369,
    "fields": {
      "city": 24,
      "city_name": "花蓮縣",
      "name": "玉里鎮",
      "zip_code": "981",
      "district_court": "",
      "land_office": "",
      "finance_and_tax_bureau": "",
      "police_station": "",
      "irs": "",
      "home_office": ""
    }
  },
  {
    "model": "yfcases.township",
    "pk": 370,
    "fields": {
      "city": 24,
      "city_name": "花蓮縣",
      "name": "卓溪鄉",
      "zip_code": "982",
      "district_court": "",
      "land_office": "",
      "finance_and_tax_bureau": "",
      "police_station": "",
      "irs": "",
      "home_office": ""
    }
  },
  {
    "model": "yfcases.township",
    "pk": 371,
    "fields": {
      "city": 24,
      "city_name": "花蓮縣",
      "name": "富里鄉",
      "zip_code": "983",
      "district_court": "",
      "land_office": "",
      "finance_and_tax_bureau": "",
      "police_station": "",
      "irs": "",
      "home_office": ""
    }
  }
]